 2018  2 1 0017  1.5 LV  4.883 -75.339  1.5  RSN  8 0.8 1.6LRSN                1
 GAP=161        1.93       3.2     6.3  3.1 -0.6669E+01 -0.4487E+01  0.2296E+01E
 Epicentro: VOLCAN CERRO MACHIN                                                3
 ACTION:SPL 18-03-20 21:18 OP:pat  STATUS:               ID:20180201001701 L   I
 2018-02-01-0008-00M.COL___454                                                 6
 STAT SP IPHASW D HRMM SECON CODA AMPLIT PERI AZIMU VELO AIN AR TRES W  DIS CAZ7
 ELA  HZ IP     C  017  3.24                             125   -0.2010 7.23 250 
 ELA  HN ES        017  4.54                             125   -0.3710 7.23 250 
 ELA  HZ  I        017  4.77      1357.4 0.36                          7.23 250 
 RECRCHZ IP        017  3.88                             122    0.1810 8.66 350 
 RECRCHE ES        017  5.22                             122   -0.1610 8.66 350 
 NIZA HZ EP        017  6.94                              47    0.4810 24.2 323 
 NIZA HE ES        017  9.59                              47   -0.7010 24.2 323 
 GUY2CHZ EP        017  8.63                              47   -0.0810 37.8 356 
 GUY2CHE ES        017 13.25                              47   -1.0610 37.8 356 
 GUY2CHZ  I        017 14.03        34.5 0.20                          37.8 356 
 ANIL HZ EP        017  9.83                              47    0.3710 43.9 189 
 ANIL HN ES        017 15.34                              47   -0.2910 43.9 189 
 ANIL HZ  I        017 17.31        51.0 0.18                          43.9 189 
 CCALAHE ES        017 16.78                              47   -0.9910 52.3 218 
 PAL  HZ EP        017 19.59                              47    1.1610  105 271 
 PAL  HN ES        017 32.82                              47    1.2210  105 271 
 PAL  HZ  I        017 33.53         9.6 0.20                           105 271 
 PTB  HZ EP   4    017 36.65                              37    3.47 0  208  28 
 PTB  HN ES   2    018  0.42                              37    2.55 4  208  28 
 PTB  HZ  I        018  1.61         2.2 0.24                           208  28 
                                                                                
 2018  2 1 0035 21.4 L   6.845 -76.284  0.0  RSN  7 0.7 2.0LRSN                1
 GAP=164        1.73       4.4     8.8  7.7 -0.1942E+02 -0.2855E+02  0.2494E+02E
 Epicentro: URAMITA - ANTIOQUIA                                                3
 ACTION:SPL 18-03-20 21:18 OP:pat  STATUS:               ID:20180201003521 L   I
 OLDACT:UP  18-02-01 15:18 OP:leo  STATUS:               ID:20180201002739     3
 OLDACT:UP  18-02-01 15:14 OP:leo  STATUS:               ID:20180201002739     3
 OLDACT:REG 18-02-01 13:51 OP:leo  STATUS:               ID:20180201002739     3
 2018-02-01-0028-00M.COL___454                                                 6
 STAT SP IPHASW D HRMM SECON CODA AMPLIT PERI AZIMU VELO AIN AR TRES W  DIS CAZ7
 DBB  EZ IP     C  035 24.94                              92   -0.7510 20.7  23 
 DBB  HE ES        035 28.76                              92   -0.3110 20.7  23 
 DBB  EZ  I        035 31.22       247.0 0.18                          20.7  23 
 CBOC HZ EP        035 38.96                              47   -0.8010  113 164 
 CBOC HN ES        035 53.59                              47   -0.5210  113 164 
 CBOC HZ  I        035 57.04        38.6 0.50                           113 164 
 APAC HZ EP        035 41.98                              47    1.1010  121 344 
 APAC HN ES   4    036  1.97                              47    5.86 0  121 344 
 APAC HZ  I        036  7.45        32.7 0.40                           121 344 
 URE  HZ EP        035 42.37                              47    0.1110  130  40 
 URE  HE ES        035 58.65                              47    0.0910  130  40 
 URE  HZ  I        036  1.43        33.8 0.18                           130  40 
 PTB  HZ EP        035 52.75                              37   -0.17 9  205  99 
 PTB  HN ES        036 18.02                              37    0.50 9  205  99 
 PTB  HZ  I        036 20.73         9.8 0.28                           205  99 
 GUY2CHN EP        035 53.26                              37   -0.37 8  206 150 
 GUY2CHZ EP        035 53.29                              37            206 150 
 GUY2CHE ES        036 20.50                              37    1.71 8  206 150 
 GUY2CHZ  I        036 22.41         9.9 0.52                           206 150 
 GUY2CHN  I        036 26.18        14.7 0.50                           206 150 
 PAL  HZ EP        035 54.64                              37    0.45 8  215 180 
 PAL  HN ES        036 19.24                              37   -0.55 8  215 180 
 PAL  HZ  I        036 25.01        21.4 0.60                           215 180 
                                                                                
 2018  2 1 0037  1.5 L   7.124 -77.867 21.2  RSN  5 0.7 2.6LRSN                1
 GAP=261        1.04      10.5     9.9  3.8  0.8596E+02 -0.2237E+02 -0.2645E+02E
 Epicentro: O. PACIFICO NORTE                                                  3
 ACTION:SPL 18-03-20 21:18 OP:pat  STATUS:               ID:20180201003709 L   I
 OLDACT:UP  18-02-07 07:50 OP:migu STATUS:               ID:20180201003709 L   3
 2018-02-01-0028-00M.COL___454                                                 6
 STAT SP IPHASW D HRMM SECON CODA AMPLIT PERI AZIMU VELO AIN AR TRES W  DIS CAZ7
 PTA  HZ EP        037  5.36                             161    0.2710 6.95  68 
 PTA  HN ES        037  7.69                             161   -0.2410 6.95  68 
 UPD2 HZ EP        037 25.25                              56    0.24 9  158 354 
 UPD2 HN ES        037 43.25                              56   -0.14 9  158 354 
 UPD2 HZ  I        037 47.83        75.4 0.30                           158 354 
 APAC HN ES   2    037 46.63                              56    1.54 5  166  59 
 CAP2 HZ EP   4    037 23.41                              56   -4.01 0  177  18 
 CAP2 HN ES   3    037 44.57                              56   -3.10 2  177  18 
 DBB  EZ EP        037 28.00                              56   -0.27 9  183  94 
 DBB  EZ ES        037 49.09                              56   -0.09 9  183  94 
                                                                                
 2018  2 1 0108 35.3 L   7.198 -79.824 14.8  RSN  7 0.7 3.3LRSN 3.7WRSN        1
 SPEC AVERAGE  MO 14.6 ST  1.7 OM  3.2 f0 1.50 R1.0567 AL 0.00 WI 30.0 MW  3.7 3
 Epicentro: O. PACIFICO NORTE                                                  3
 SPEC SD       MO 10.3 ST  1.3 OM  2.2 f0 1.07 R0.7545 AL      WI      MW  2.6 3
 GAP=224        1.50       8.1    10.5 10.8 -0.6564E+01 -0.7698E+02 -0.2070E+02E
 SPEC AZU HH Z MO 14.6 ST  2.4 OM  3.3 f0 1.71 R0.9088 AL-0.00 WI 30.0 MW  3.7 3
 SPEC AZU HH Z T 1 857 K 0.000 GD 83.6 VS 4.20 DE 3.20 Q0230.0 QA 0.60 VS 4.20 3
 SPECCACAOHN Z MO 14.8 ST891.1 OM  3.4 f0 10.5 R 0.148 AL-0.00 WI 30.0 MW  3.8 3
 SPECCACAOHN Z T 1 9 5 K       GD107.7 VS 4.20 DE 3.20 Q0230.0 QA 0.60 VS 4.20 3
 SPEC BCIPBH Z MO 14.6 ST0.923 OM  3.0 f0 1.29 R1.2047 AL-0.00 WI 30.0 MW  3.7 3
 SPEC BCIPBH Z T 1 931 K 0.000 GD  147 VS 4.20 DE 3.20 Q0230.0 QA 0.60 VS 4.20 3
 ACTION:SPL 18-03-20 21:18 OP:pat  STATUS:               ID:20180201010835 L   I
 OLDACT:UP  18-02-09 11:40 OP:dnl  STATUS:               ID:20180201010835 L   3
 OLDACT:UP  18-02-09 08:30 OP:migu STATUS:               ID:20180201010835 L   3
 2018-02-01-0108-00M.COL___454                                                 6
 STAT SP IPHASW D HRMM SECON CODA AMPLIT PERI AZIMU VELO AIN AR TRES W  DIS CAZ7
 AZU  HZ EP        1 8 48.36                              98   -0.1510 82.3 323 
 AZU  HN ES        1 8 58.76                              98   -0.0110 82.3 323 
 AZU  HZ  I        1 9  3.69      1046.0 0.38                          82.3 323 
 CACAOHZ EP        1 8 53.27                              96   -0.0410  114 277 
 CACAOHE ES   3    1 9  6.73                              96   -0.59 2  114 277 
 CACAOHZ  I        1 9 10.26       108.9 0.10                           114 277 
 PNME HZ EP        1 8 58.61                              56   -0.16 9  153 339 
 PNME HE ES        1 9 16.97                              56   -0.07 9  153 339 
 PNME HZ  I        1 9 19.64       245.8 0.20                           153 339 
 GMAL HZ EP        1 9  0.97                              56   -0.04 9  171 293 
 GMAL HE ES   4    1 9 26.26                              56    5.24 0  171 293 
 GMAL HZ  I        1 9 28.06       105.1 0.36                           171 293 
 UPA  HZ EP        1 9  5.03                              56    0.40 9  200   9 
 UPA  HE ES        1 9 25.77                              56   -1.70 9  200   9 
 UPA  HZ  I        1 9 34.34      7541.6 0.48                           200   9 
 BCIP BZ EP        1 9  7.64                              56    0.73 8  218 360 
 BCIP B2 ES        1 9 32.90                              56    1.36 8  218 360 
 BCIP BZ  I        1 9 35.61       191.0 0.40                           218 360 
 UPD2 HZ EP   3    1 9  9.11                              56   -1.70 2  249  53 
 UPD2 HN ES   3    1 9 39.05                              56    0.57 2  249  53 
 PAL  HZ EP   4    1 9 35.14                              55   -2.69 0  467 123 
                                                                                
 2018  2 1 0129 16.4 L   3.487 -74.229  2.0  RSN 22 0.7 2.4LRSN                1
 GAP= 93        1.33       2.8     2.5  4.4 -0.2730E+01  0.1764E+01 -0.1271E+01E
 Epicentro: MESETAS - META                                                     3
 ACTION:SPL 18-03-20 21:18 OP:pat  STATUS:               ID:20180201012916 L   I
 OLDACT:UP  18-02-07 16:51 OP:leo  STATUS:               ID:20180201012916 L   3
 OLDACT:UP  18-02-07 07:50 OP:migu STATUS:               ID:20180201012916 L   3
 2018-02-01-0128-00M.COL___454                                                 6
 STAT SP IPHASW D HRMM SECON CODA AMPLIT PERI AZIMU VELO AIN AR TRES W  DIS CAZ7
 PRA  HZ EP     D  129 28.96                              47   -0.0710 77.1 289 
 PRA  HN ES        129 39.05                              47    0.1910 77.1 289 
 PRA  HZ  I        129 39.47       110.6 0.38                          77.1 289 
 VIL  EZ EP        129 31.04                              47   -0.2110 91.2  41 
 VIL  EN ES        129 42.03                              47   -0.7910 91.2  41 
 VIL  EZ  I        129 44.22       236.1 0.18                          91.2  41 
 CVER HZ EP        129 34.76                              47   -0.5510  116   9 
 CVER HE ES        129 49.95                              47   -0.1010  116   9 
 CVER HZ  I        129 53.52        68.7 0.26                           116   9 
 ORTC HZ EP        129 35.92                              47    0.0710  122 292 
 ORTC HN ES        129 51.19                              47    0.1810  122 292 
 ORTC HZ  I        129 51.75       164.6 0.52                           122 292 
 ROSC BZ EP   4    129 41.23                              47    0.82 0  150 356 
 ROSC HN ES   4    130  2.50                              47    3.36 0  150 356 
 ROSC BZ  I        130  4.06        35.0 0.45                           150 356 
 MACC HZ EP   9    130 15.97                              47   35.28 0  154 164 
 MACC HN ES        130 34.24                              37   -0.67 9  154 164 
 MACC HZ  I        130 37.35        58.5 0.10                           154 164 
 BET  EZ EP        129 41.70                              47    0.59 9  157 237 
 BET  EN ES        130  0.94                              47    0.56 9  157 237 
 BET  EZ  I        130  8.31        40.7 0.80                           157 237 
 ANIL HZ EP        129 43.02                              47   -0.51 9  171 310 
 ANIL HE ES        130  4.11                              47   -0.57 9  171 310 
 CCALAHZ EP        129 45.79                              37   -0.49 9  192 306 
 CCALAHE ES        130  8.92                              37   -0.66 9  192 306 
 ELA  HZ EP        129 47.76                              37    0.13 9  200 319 
 ELA  HE ES        130 12.20                              37    0.21 9  200 319 
 ELA  HZ  I        130 12.90        57.6 0.34                           200 319 
 GARC HZ EP        129 47.47                              37    0.03 9  201 224 
 GARC HN ES        130 10.75                              37   -0.89 9  201 224 
 MARO HZ EP        129 48.31                              37    0.39 9  205 250 
 MARO HE ES        130 11.65                              37   -0.84 9  205 250 
 MARO HZ  I        130 16.33        39.7 0.10                           205 250 
 GUY2CHZ EP        129 51.33                              37    0.04 8  230 327 
 GUY2CHN ES        130 19.05                              37    0.55 8  230 327 
 GUY2CHZ  I        130 21.76         9.1 0.30                           230 327 
 SPBC HZ EP        129 53.30                              37    1.19 8  240   4 
 SPBC HN ES        130 21.12                              37    1.16 8  240   4 
 SPBC HZ  I        130 28.11        24.1 0.28                           240   4 
 YOT  HN ES   4    130 22.53                              37    2.21 0  241 283 
 PTGC HZ EP        129 52.34                              37   -0.38 8  246  71 
 PTGC HN ES        130 22.10                              37    1.06 8  246  71 
 PTGC HZ  I        130 26.93        29.6 0.30                           246  71 
 CONO HN ES   2    130 29.51                              37    1.18 4  273 242 
 CONO HZ  I        130 35.42        35.6 0.16                           273 242 
 JAMC HZ EP   4    129 58.86                              37    2.43 0  273 264 
 CONO HZ EP   3    129 59.26                              37    2.45 2  273 242 
 JAMC HN ES   3    130 28.80                              37    1.16 2  273 264 
 JAMC HZ  I        130 33.75        10.4 0.54                           273 264 
 PAL  HZ EP        129 56.67                              37   -0.00 7  277 305 
 PAL  HN ES   4    130 31.76                              37    3.68 0  277 305 
 PAL  HZ  I        130 35.89        11.8 0.22                           277 305 
 POP2 HZ EP   4    130  2.11                              37    3.39 0  291 249 
 POP2 HN ES   3    130 34.19                              37    2.48 2  291 249 
 POP2 HZ  I        130 38.76         6.3 0.34                           291 249 
 YPLC HN EP   3    130  0.45                              36    1.56 2  294  44 
 YPLC HN ES   4    130 38.45                              36    6.42 0  294  44 
 PTB  HZ EP   4    130  8.89                              36    4.63 0  338 356 
 PTB  HE ES   4    130 40.10                              36   -1.48 0  338 356 
 PTB  HZ  I        130 51.86         4.6 0.34                           338 356 
 PTLC HZ EP   4    130 20.30                              36    7.30 0  409 189 
 PTLC HN ES   4    131  1.71                              36    4.57 0  409 189 
 PTLC HZ  I        131 11.40        16.7 0.32                           409 189 
                                                                                
 2018  2 1 0213 20.1 L   6.893 -73.228142.0  RSN  8 0.6 1.6LRSN                1
 GAP=122        0.91       4.4     5.3  7.6 -0.1036E+02  0.1894E+02 -0.8973E+01E
 Epicentro: BETULIA - SANTANDER                                                3
 ACTION:SPL 18-03-20 21:18 OP:pat  STATUS:               ID:20180201021320 L   I
 OLDACT:UP  18-02-01 16:09 OP:mg   STATUS:               ID:20180201020741d    3
 OLDACT:DUP 18-02-01 15:56 OP:mg   STATUS:               ID:20180201020741d    3
 2018-02-01-0208-00M.COL___454                                                 6
 STAT SP IPHASW D HRMM SECON CODA AMPLIT PERI AZIMU VELO AIN AR TRES W  DIS CAZ7
 BAR2 EZ EP        213 39.22                             167   -0.2810 33.6 171 
 BAR2 EZ ES   1    213 54.67                             167    0.01 7 33.6 171 
 BAR2 EZ  I        213 55.15        13.0 0.32                          33.6 171 
 PAM  EZ EP        213 41.92                             151    0.0910 76.5  50 
 PAM  EN ES        213 59.17                             151    0.3710 76.5  50 
 PAM  EZ  I        214  1.50         4.4 0.47                          76.5  50 
 PTB  HZ EP        213 45.86                             133   -0.29 9  141 254 
 PTB  HN ES        214  7.01                             133    0.52 9  141 254 
 PTB  HZ  I        214  8.90         2.5 0.12                           141 254 
 OCA  HE ES   1    214  7.58                             131   -0.52 7  149 356 
 OCA  HZ  I        214 13.34         9.7 0.18                           149 356 
 SPBC HZ EP   1    213 48.12                             128   -0.43 7  166 214 
 SPBC HN ES   1    214 10.35                             128   -0.41 7  166 214 
 SPBC HZ  I        214 15.99         5.7 0.10                           166 214 
 DRL03HZ EP   2    214  1.57                             114    1.33 4  278 354 
 DRL03HN ES   3    214 33.51                             114    1.93 2  278 354 
 GUY2CHZ EP   2    214  4.47                             112    1.10 4  300 232 
 GUY2CHN ES   2    214 38.16                             112    1.02 4  300 232 
 GUY2CHZ  I        214 45.07         1.1 0.15                           300 232 
 SJC  HZ EP        214 13.28                             106   -0.64 6  396 327 
 SJC  HN ES        214 55.72                             106   -0.20 6  396 327 
 SJC  HZ  I        214 59.97         1.6 0.62                           396 327 
                                                                                
