 2018  2 1 1829  2.9 L   6.823 -73.149137.6  RSN 17 0.8 2.4LRSN                1
 GAP= 65        1.34       4.4     4.2  7.6 -0.4375E+01  0.7616E+01  0.9252E+01E
 Epicentro: LOS SANTOS - SANTANDER                                             3
 ACTION:SPL 18-03-20 21:18 OP:pat  STATUS:               ID:20180201182902 L   I
 OLDACT:REG 18-02-01 20:40 OP:lv   STATUS:               ID:20180201182540     3
 2018-02-01-1828-00M.COL___472                                                 6
 STAT SP IPHASW D HRMM SECON CODA AMPLIT PERI AZIMU VELO AIN AR TRES W  DIS CAZ7
 BAR2 EZ EP       1829 21.67                             169    0.0210 25.8 188 
 BAR2 EZ ES       1829 36.09                             169   -0.1510 25.8 188 
 BAR2 EZ  I       1829 37.70        88.4 0.16                          25.8 188 
 PAM  EZ IP     D 1829 24.48                             149    0.2910 75.7  41 
 PAM  EN ES       1829 41.44                             149    0.6710 75.7  41 
 PAM  EZ  I       1829 43.57        60.9 0.52                          75.7  41 
 PTB  HZ EP       1829 28.63                             130   -0.64 9  148 258 
 PTB  HN ES       1829 49.06                             130   -0.74 9  148 258 
 PTB  HZ  I       1829 51.89        22.1 0.20                           148 258 
 TAM  HN ES       1829 51.37                             128    0.11 9  156 106 
 OCA  HZ EP       1829 30.03                             128   -0.36 9  158 353 
 OCA  HN ES       1829 51.68                             128   -0.11 9  158 353 
 OCA  HZ  I       1829 53.66        86.7 0.38                           158 353 
 SPBC HZ EP       1829 30.74                             127   -0.26 9  165 218 
 SPBC HN ES       1829 51.86                             127   -1.02 9  165 218 
 SPBC HZ  I       1829 55.03        33.8 0.32                           165 218 
 YPLC HZ EP       1829 32.14                             124   -0.26 9  179 152 
 YPLC HE ES   2   1829 56.09                             124    0.71 4  179 152 
 NOR  HZ EP   1   1829 38.46                             116    0.12 6  236 234 
 NOR  HN ES   1   1830  5.76                             116   -0.19 6  236 234 
 ROSC BN ES   3   1830 12.94                             114    2.52 2  255 211 
 URE  HZ EP   9   1829 41.71                             112   -1.77 0  283 291 
 URE  HN ES       1830 13.27                                   -0.06 7  283 291 
 GUY2CHZ EP   1   1829 47.05                             110    0.73 5  302 234 
 GUY2CHN ES       1830 22.36                             110    2.21 7  302 234 
 GUY2CHZ  I       1830 26.65        11.0 0.24                           302 234 
 VIL  EZ EP       1829 45.67                             110   -0.61 7  306 191 
 PTGC HZ EP   3   1829 44.89                             110   -1.85 2  311 159 
 PTGC HE ES   3   1830 18.56                             110   -2.34 2  311 159 
 CBOC HZ EP       1829 50.74                             108    1.16 7  334 252 
 CBOC HN ES       1830 26.69                             108    0.73 7  334 252 
 CBOC HZ  I       1830 31.21         4.1 0.38                           334 252 
 PRA  HZ EP       1829 56.17                             105   -0.26 6  394 209 
 PRA  HN ES       1830 38.34                             105    0.19 6  394 209 
 PRA  HZ  I       1830 42.82         7.4 0.30                           394 209 
 ORTC HZ EP       1829 56.88                             105    0.07 6  397 216 
 ORTC HN ES   2   1830 39.76                             105    0.93 3  397 216 
 SJC  HZ EP   3   1829 56.60                             104   -1.37 1  407 327 
 SJC  HN ES   3   1830 37.60                             104   -3.29 1  407 327 
 SJC  HZ  I       1830 41.14         3.5 0.54                           407 327 
                                                                                
 2018  2 1 1954  3.5 L   6.953 -73.208148.0  RSN  4 0.4 1.8LRSN                1
 GAP=199        0.91       6.1     6.0  9.2 -0.1699E+02  0.2119E+02 -0.8787E+01E
 Epicentro: BETULIA - SANTANDER                                                3
 ACTION:SPL 18-03-20 21:18 OP:pat  STATUS:               ID:20180201195403 L   I
 OLDACT:UP  18-02-02 07:30 OP:dhb  STATUS:               ID:20180201195403 L   3
 OLDACT:REG 18-02-01 20:45 OP:lv   STATUS:               ID:20180201194723     3
 2018-02-01-1948-00M.COL___469                                                 6
 STAT SP IPHASW D HRMM SECON CODA AMPLIT PERI AZIMU VELO AIN AR TRES W  DIS CAZ7
 PAM  EZ IP     C 1954 26.07                             154    0.4710 70.6  53 
 PAM  EN ES       1954 42.78                             154   -0.0410 70.6  53 
 PAM  EZ  I       1954 45.20        14.1 0.54                          70.6  53 
 OCA  HZ EP       1954 29.86                             134   -0.57 9  143 355 
 OCA  HN ES       1954 51.46                             134    0.05 9  143 355 
 OCA  HZ  I       1954 55.79        18.9 0.30                           143 355 
 PTB  HZ EP       1954 29.97                             133   -0.51 9  145 252 
 PTB  HE ES       1954 51.80                             133    0.31 9  145 252 
 PTB  HZ  I       1954 53.22         5.9 0.54                           145 252 
 SJC  HZ EP   1   1954 57.71                             107    0.63 4  391 326 
 SJC  HN ES   1   1955 39.25                             107    0.41 4  391 326 
 SJC  HZ  I       1955 44.47         0.6 0.12                           391 326 
                                                                                
 2018  2 1 2038 14.2 L  10.737 -73.610  0.0  RSN  8 0.6 1.8LRSN                1
 GAP=123        1.45       2.8     3.2  6.7  0.6342E+00  0.2517E+01  0.3843E+01E
 Epicentro: PUEBLO BELLO - CESAR                                               3
 ACTION:SPL 18-03-20 21:18 OP:pat  STATUS:               ID:20180201203814 L   I
 OLDACT:REG 18-02-02 05:20 OP:dhb  STATUS:               ID:20180201203742     3
 2018-02-01-2038-00M.COL___472                                                 6
 STAT SP IPHASW D HRMM SECON CODA AMPLIT PERI AZIMU VELO AIN AR TRES W  DIS CAZ7
 SMAR HZ EP       2038 27.62                              47   -0.1610 82.2 305 
 SMAR HN ES       2038 38.48                              47    0.0910 82.2 305 
 SMAR HZ  I       2038 40.03        22.6 0.44                          82.2 305 
 CRJC HZ EP       2038 28.42                              47    0.0310 85.5  68 
 CRJC HE ES       2038 39.86                              47    0.3710 85.5  68 
 CRJC HZ  I       2038 48.02        39.2 0.18                          85.5  68 
 DRL01HZ EP       2038 32.54                              47   -0.0310  114 183 
 DRL01HN ES       2038 47.48                              47    0.5610  114 183 
 DRL02HZ IP     D 2038 33.10                              47    0.0710  117 161 
 DRL02HE ES       2038 47.88                              47    0.1410  117 161 
 ARGC HZ EP       2038 33.62                              47    0.1610  120 216 
 ARGC HE ES       2038 49.23                              47    0.7210  120 216 
 ARGC HZ  I       2038 50.20         8.0 0.18                           120 216 
 DRL04HZ EP       2038 34.24                              47   -0.0610  125 176 
 DRL04HE ES       2038 50.81                              47    0.8010  125 176 
 DRL03HZ EP       2038 36.79                              47   -1.18 9  149 174 
 DRL03HE ES       2038 55.14                              47   -1.40 9  149 174 
 SJC  HZ EP       2038 44.34                              37   -0.25 9  195 242 
 SJC  HN ES       2039  8.14                              37   -0.19 9  195 242 
 SJC  HZ  I       2039 15.63        19.9 0.90                           195 242 
                                                                                
 2018  2 1 2044 53.7 L   6.821 -73.156141.1  RSN  7 0.4 1.9LRSN                1
 GAP=145        0.86       6.3     5.7  5.9 -0.2529E+02  0.6596E+01  0.6380E+01E
 Epicentro: LOS SANTOS - SANTANDER                                             3
 ACTION:SPL 18-03-20 21:18 OP:pat  STATUS:               ID:20180201204453 L   I
 OLDACT:DUP 18-02-02 06:01 OP:dhb  STATUS:               ID:20180201203743d    3
 OLDACT:REG 18-02-02 05:20 OP:dhb  STATUS:               ID:20180201203742     3
 2018-02-01-2038-00M.COL___472                                                 6
 STAT SP IPHASW D HRMM SECON CODA AMPLIT PERI AZIMU VELO AIN AR TRES W  DIS CAZ7
 BAR2 EZ EP       2045 12.60                             169   -0.2010 25.5 187 
 BAR2 EZ ES       2045 27.10                             169   -0.6110 25.5 187 
 BAR2 EZ  I       2045 31.67        10.2 0.24                          25.5 187 
 PAM  EZ IP     C 2045 15.50                             150    0.1610 76.4  41 
 PAM  EN ES       2045 32.78                             150    0.5510 76.4  41 
 PAM  EZ  I       2045 35.13         8.8 0.54                          76.4  41 
 PTB  HZ EP       2045 19.70                             131   -0.52 9  147 258 
 PTB  HE ES       2045 40.92                             131    0.01 9  147 258 
 PTB  HZ  I       2045 48.23         6.4 0.38                           147 258 
 SPBC HZ EP       2045 21.62                             128   -0.31 9  164 218 
 SPBC HE ES       2045 44.46                             128    0.49 9  164 218 
 SPBC HZ  I       2045 49.45        16.0 0.12                           164 218 
 NOR  HZ EP       2045 29.07                             117   -0.12 8  235 234 
 NOR  HN ES       2045 57.20                             117    0.31 8  235 234 
 GUY2CHZ EP       2045 37.17                             111    0.04 7  302 234 
 GUY2CHE ES       2046 11.28                             111    0.27 7  302 234 
 GUY2CHZ  I       2046 19.34         5.3 0.26                           302 234 
 PRA  HZ EP       2045 47.41                             106    0.19 6  393 209 
 PRA  HE ES       2046 29.13                             106    0.16 6  393 209 
 PRA  HZ  I       2046 35.26         3.4 0.34                           393 209 
                                                                                
 2018  2 1 2049 16.2 L   5.450 -75.550  4.0  RSN  4 0.3 1.2LRSN                1
 GAP=146        0.72       2.0     2.0  4.6  0.1876E+01 -0.7944E+00  0.3699E+00E
 Epicentro: LA MERCED - CALDAS                                                 3
 ACTION:SPL 18-03-20 21:18 OP:pat  STATUS:               ID:20180201204916 L   I
 OLDACT:REG 18-02-02 05:21 OP:dhb  STATUS:               ID:20180201204738     3
 2018-02-01-2048-00M.COL___473                                                 6
 STAT SP IPHASW D HRMM SECON CODA AMPLIT PERI AZIMU VELO AIN AR TRES W  DIS CAZ7
 GUY2CHZ IP     D 2049 21.99                              47   -0.2210 32.3 140 
 GUY2CHE ES       2049 26.44                              47   -0.4410 32.3 140 
 GUY2CHZ  I       2049 28.97        10.8 0.20                          32.3 140 
 ELA  HZ EP       2049 27.78                              47    0.2310 67.2 166 
 ELA  HN ES       2049 36.62                              47    0.2410 67.2 166 
 ELA  HZ  I       2049 38.64         7.7 0.46                          67.2 166 
 CBOC HZ EP       2049 27.67                              47    0.2710 68.7 312 
 CBOC HN ES       2049 35.82                              47   -0.3010 68.7 312 
 CBOC HZ  I       2049 36.57        22.6 0.16                          68.7 312 
 NOR  HZ EP       2049 28.64                              47    0.1710 76.5  81 
 NOR  HN ES       2049 38.08                              47    0.0610 76.5  81 
                                                                                
 2018  2 1 2145  8.6 L   6.857 -73.226139.2  RSN  6 0.4 1.9LRSN                1
 GAP=123        0.82       4.3     4.8  5.8 -0.7606E+01  0.1342E+02 -0.2608E+01E
 Epicentro: ZAPATOCA - SANTANDER                                               3
 ACTION:SPL 18-03-20 21:18 OP:pat  STATUS:               ID:20180201214508 L   I
 OLDACT:REG 18-02-02 05:27 OP:dhb  STATUS:               ID:20180201213630     3
 2018-02-01-2138-00M.COL___475                                                 6
 STAT SP IPHASW D HRMM SECON CODA AMPLIT PERI AZIMU VELO AIN AR TRES W  DIS CAZ7
 BAR2 EZ EP       2145 27.27                             167   -0.3610 29.7 171 
 BAR2 EZ ES       2145 42.46                             167    0.0210 29.7 171 
 BAR2 EZ  I       2145 50.16        13.1 0.62                          29.7 171 
 PAM  EZ EP       2145 30.19                             149   -0.0710 78.9  47 
 PAM  EN ES       2145 47.36                             149    0.2510 78.9  47 
 PAM  EZ  I       2145 49.43        15.6 0.52                          78.9  47 
 PTB  HZ EP       2145 34.07                             132   -0.35 9  141 256 
 PTB  HN ES       2145 54.60                             132    0.08 9  141 256 
 PTB  HZ  I       2145 56.06         6.6 0.18                           141 256 
 GUY2CHZ EP       2145 52.64                             111    1.07 7  298 233 
 GUY2CHN ES   4   2146 29.04                             111    3.99 0  298 233 
 GUY2CHZ  I       2146 35.66         3.5 0.50                           298 233 
 PRA  HZ EP       2146  2.29                             105    0.20 6  393 208 
 PRA  HE ES       2146 43.37                             105   -0.41 6  393 208 
 PRA  HZ  I       2146 47.46         2.3 0.24                           393 208 
 SJC  HZ EP       2146  2.63                             105   -0.18 6  399 328 
 SJC  HN ES       2146 44.97                             105   -0.08 6  399 328 
 SJC  HZ  I       2146 49.90         5.5 0.90                           399 328 
                                                                                
 2018  2 1 2207  5.2 L   4.211 -77.843 30.9  RSN  5 0.4 1.8LRSN                1
 GAP=262        0.91       3.6     6.4  4.6  0.8142E+01 -0.6734E+00 -0.6332E+01E
 Epicentro: O. PACIFICO CENTRO                                                 3
 ACTION:SPL 18-03-20 21:18 OP:pat  STATUS:               ID:20180201220705 L   I
 OLDACT:UP  18-02-02 06:24 OP:dhb  STATUS:               ID:20180201215741     3
 OLDACT:REG 18-02-02 05:45 OP:dhb  STATUS:               ID:20180201215741     3
 2018-02-01-2158-00M.COL___474                                                 6
 STAT SP IPHASW D HRMM SECON CODA AMPLIT PERI AZIMU VELO AIN AR TRES W  DIS CAZ7
 MAL  EZ EPg      22 7 15.19                             110   -0.5410 60.5 111 
 MAL  EE ESg      22 7 24.40                             110    0.4510 60.5 111 
 MAL  EZ  I       22 7 27.58        80.4 0.24                          60.5 111 
 PIZC HZ EP       22 7 20.73                              61    0.1010 99.2  33 
 PIZC HE ES       22 7 32.97                              61    0.3010 99.2  33 
 PIZC HZ  I       22 7 34.03        37.7 0.48                          99.2  33 
 YOT  HZ EP       22 7 29.03                              61   -0.40 9  168  99 
 YOT  HN ES       22 7 47.89                              61   -0.43 9  168  99 
 YOT  HZ  I       22 7 52.53         7.0 0.54                           168  99 
 JAMC HZ EP       22 7 30.26                              61    0.45 9  170 130 
 JAMC HE ES       22 7 49.25                              61    0.25 9  170 130 
 JAMC HZ  I       22 7 54.87         8.1 0.60                           170 130 
 PAL  HZ EP       22 7 31.82                              61   -0.20 9  189  66 
 PAL  HE ES       22 7 52.87                              61   -0.06 9  189  66 
 PAL  HZ  I       22 7 57.56         8.5 0.38                           189  66 
                                                                                
 2018  2 1 2223 36.5 L   6.823 -76.292  0.0  RSN  5 0.4 1.4LRSN                1
 GAP=219        0.88       2.0     9.2  7.8 -0.7156E+01 -0.5203E+02  0.3950E+01E
 Epicentro: URAMITA - ANTIOQUIA                                                3
 ACTION:SPL 18-03-20 21:18 OP:pat  STATUS:               ID:20180201222336 L   I
 OLDACT:REG 18-02-02 05:47 OP:dhb  STATUS:               ID:20180201221742     3
 2018-02-01-2218-00M.COL___466                                                 6
 STAT SP IPHASW D HRMM SECON CODA AMPLIT PERI AZIMU VELO AIN AR TRES W  DIS CAZ7
 DBB  EZ IP     D 2223 40.89                              47   -0.4310 23.4  23 
 DBB  EE ES       2223 45.00                              47   -0.0710 23.4  23 
 DBB  EZ  I       2223 47.74        60.9 0.12                          23.4  23 
 CBOC HZ EP       2223 54.45                              47   -0.1510  110 164 
 CBOC HE ES       2224  8.57                              47   -0.1210  110 164 
 CBOC HZ  I       2224 13.90         5.5 0.26                           110 164 
 URE  HZ EP       2223 58.12                              47    0.3210  133  39 
 URE  HE ES       2224 14.67                              47    0.2810  133  39 
 URE  HZ  I       2224 15.86         8.8 0.20                           133  39 
 GUY2CHZ EP       2224  9.35                              37    0.78 9  204 150 
 GUY2CHE ES   3   2224 35.07                              37    1.50 2  204 150 
 GUY2CHZ  I       2224 42.61         2.6 0.78                           204 150 
 PTB  HZ EP       2224  7.78                              37   -0.36 8  205  99 
 PTB  HN ES       2224 32.58                              37   -0.22 8  205  99 
 PTB  HZ  I       2224 34.27         3.1 0.44                           205  99 
                                                                                
 2018  2 1 2230  6.2 L   6.957 -76.330  5.2  RSN  4 0.3 1.8LRSN                1
 GAP=241        0.73       2.8     6.1  5.7 -0.1227E+02 -0.1458E+02  0.6952E+01E
 Epicentro: DABEIBA - ANTIOQUIA                                                3
 ACTION:SPL 18-03-20 21:18 OP:pat  STATUS:               ID:20180201223006 L   I
 OLDACT:REG 18-02-02 05:48 OP:dhb  STATUS:               ID:20180201222739     3
 2018-02-01-2228-00M.COL___462                                                 6
 STAT SP IPHASW D HRMM SECON CODA AMPLIT PERI AZIMU VELO AIN AR TRES W  DIS CAZ7
 DBB  EZ IP     C 2230  8.73                              97   -0.4110 14.9  63 
 DBB  HE ES       2230 11.73                              97    0.2910 14.9  63 
 DBB  EZ  I       2230 12.73       642.5 0.16                          14.9  63 
 URE  HZ EP       2230 26.06                              91    0.4110  124  45 
 URE  HE ES       2230 40.50                              91   -0.3210  124  45 
 URE  HZ  I       2230 45.47        14.1 0.40                           124  45 
 CBOC HZ EP       2230 25.97                              91   -0.0710  126 164 
 CBOC HE ES       2230 41.53                              91    0.0110  126 164 
 CBOC HZ  I       2230 46.57         9.5 0.22                           126 164 
 PTB  HZ EP       2230 38.14                              56    0.24 8  212 102 
 PTB  HE ES       2231  2.50                              56   -0.13 8  212 102 
 PTB  HZ  I       2231  4.38         4.7 0.66                           212 102 
                                                                                
