 2018  2 1 1631 30.8 L   6.511 -73.468129.7  RSN 45 0.8 3.5LRSN 3.8WRSN        1
 SPEC AVERAGE  MO 14.8 ST  2.8 OM  2.6 f0 1.43 R1.7628 AL 0.00 WI 40.0 MW  3.8 3
 Epicentro: SIMACOTA - SANTANDER                                               3
 SPEC SD       MO  7.2 ST  6.1 OM  1.3 f0 1.18 R1.0680 AL      WI      MW  1.9 3
 GAP= 43        1.17       2.2     2.4  4.9 -0.1674E+01  0.2432E+01 -0.1044E+01E
 SPEC SPBCHH Z MO 14.6 ST 23.3 OM  2.6 f0 4.73 R0.4068 AL-0.00 WI 40.0 MW  3.6 3
 SPEC SPBCHH Z T1632 9 K 0.000 GD  174 VS 5.20 DE 3.50 Q0750.0 QA 1.50 VS 5.20 3
 SPEC OCA HH Z MO 15.0 ST 14.6 OM  2.9 f0 2.92 R0.6589 AL-0.00 WI 40.0 MW  3.9 3
 SPEC OCA HH Z T163223 K 0.000 GD  231 VS 5.20 DE 3.50 Q0750.0 QA 1.50 VS 5.20 3
 SPEC CVERHH Z MO 15.1 ST0.755 OM  3.0 f00.965 R1.9938 AL-0.00 WI 40.0 MW  4.0 3
 SPEC CVERHH Z T163231 K 0.000 GD  264 VS 5.20 DE 3.50 Q0750.0 QA 1.50 VS 5.20 3
 SPECMEDECHN Z MO 15.7 ST  5.5 OM  3.6 f0 1.17 R  1.64 AL-0.00 WI 40.0 MW  4.4 3
 SPECMEDECHN Z T163232 K       GD269.1 VS 5.20 DE 3.50 Q0750.0 QA 1.50 VS 5.20 3
 SPECGUY2CHH Z MO 15.1 ST  0.6 OM  3.0 f00.892 R  2.16 AL-0.00 WI 40.0 MW  4.0 3
 SPECGUY2CHH Z T163236 K       GD285.0 VS 5.20 DE 3.50 Q0750.0 QA 1.50 VS 5.20 3
 SPEC VIL EH Z MO 15.0 ST0.813 OM  2.8 f0 1.11 R1.7333 AL-0.00 WI 40.0 MW  3.9 3
 SPEC VIL EH Z T163237 K 0.000 GD  295 VS 5.20 DE 3.50 Q0750.0 QA 1.50 VS 5.20 3
 SPEC CBOCHH Z MO 14.5 ST  1.2 OM  2.3 f0 1.79 R1.0749 AL-0.00 WI 40.0 MW  3.6 3
 SPEC CBOCHH Z T163242 K 0.000 GD  318 VS 5.20 DE 3.50 Q0750.0 QA 1.50 VS 5.20 3
 SPEC PTGCHH Z MO 14.6 ST  1.1 OM  2.4 f0 1.64 R1.1732 AL-0.00 WI 40.0 MW  3.7 3
 SPEC PTGCHH Z T163240 K 0.000 GD  322 VS 5.20 DE 3.50 Q0750.0 QA 1.50 VS 5.20 3
 SPEC DBB HH Z MO 14.7 ST0.984 OM  2.5 f0 1.43 R1.3455 AL-0.00 WI 40.0 MW  3.8 3
 SPEC DBB HH Z T163245 K 0.000 GD  334 VS 5.20 DE 3.50 Q0750.0 QA 1.50 VS 5.20 3
 SPECDRL03HH Z MO 15.1 ST  0.6 OM  2.8 f00.953 R  2.02 AL-0.00 WI 40.0 MW  4.0 3
 SPECDRL03HH Z T163248 K       GD344.2 VS 5.20 DE 3.50 Q0750.0 QA 1.50 VS 5.20 3
 SPECCCALAHN Z MO 16.3 ST999.0 OM  4.1 f0 13.9 R 0.138 AL-0.00 WI 40.0 MW  4.8 3
 SPECCCALAHN Z T163255 K       GD350.7 VS 5.20 DE 3.50 Q0750.0 QA 1.50 VS 5.20 3
 SPEC ORTCHH Z MO 15.3 ST0.642 OM  3.0 f00.815 R2.3607 AL-0.00 WI 40.0 MW  4.1 3
 SPEC ORTCHH Z T163255 K 0.000 GD  372 VS 5.20 DE 3.50 Q0750.0 QA 1.50 VS 5.20 3
 SPEC LL6CHH Z MO 15.1 ST0.316 OM  2.8 f00.745 R2.5826 AL-0.00 WI 40.0 MW  4.0 3
 SPEC LL6CHH Z T163256 K 0.000 GD  379 VS 5.20 DE 3.50 Q0750.0 QA 1.50 VS 5.20 3
 SPEC PAL HH Z MO 14.5 ST0.930 OM  2.2 f0 1.69 R1.1385 AL-0.00 WI 40.0 MW  3.6 3
 SPEC PAL HH Z T163255 K 0.000 GD  381 VS 5.20 DE 3.50 Q0750.0 QA 1.50 VS 5.20 3
 SPEC APACHH Z MO 15.0 ST0.322 OM  2.7 f00.797 R2.4141 AL-0.00 WI 40.0 MW  4.0 3
 SPEC APACHH Z T163260 K 0.000 GD  398 VS 5.20 DE 3.50 Q0750.0 QA 1.50 VS 5.20 3
 SPEC ARGCHH Z MO 15.1 ST0.272 OM  2.8 f00.696 R2.7644 AL-0.00 WI 40.0 MW  4.0 3
 SPEC ARGCHH Z T1633 6 K 0.000 GD  401 VS 5.20 DE 3.50 Q0750.0 QA 1.50 VS 5.20 3
 SPEC SJC HH Z MO 14.8 ST0.395 OM  2.4 f0 1.04 R1.8500 AL-0.00 WI 40.0 MW  3.8 3
 SPEC SJC HH Z T1633 7 K 0.000 GD  438 VS 5.20 DE 3.50 Q0750.0 QA 1.50 VS 5.20 3
 SPEC YOT HH Z MO 14.7 ST0.095 OM  2.3 f00.696 R2.7644 AL-0.00 WI 40.0 MW  3.7 3
 SPEC YOT HH Z T163311 K 0.000 GD  443 VS 5.20 DE 3.50 Q0750.0 QA 1.50 VS 5.20 3
 SPECVALLCHN Z MO 17.0 ST999.0 OM  4.6 f0 40.0 R 0.048 AL-0.00 WI 40.0 MW  5.2 3
 SPECVALLCHN Z T163314 K       GD461.5 VS 5.20 DE 3.50 Q0750.0 QA 1.50 VS 5.20 3
 SPEC MACCHH Z MO 14.8 ST  1.2 OM  2.4 f0 1.45 R1.3269 AL-0.00 WI 40.0 MW  3.8 3
 SPEC MACCHH Z T163354 K 0.000 GD  502 VS 5.20 DE 3.50 Q0750.0 QA 1.50 VS 5.20 3
 SPEC MAROHH Z MO 14.8 ST0.303 OM  2.4 f00.907 R2.1213 AL-0.00 WI 40.0 MW  3.8 3
 SPEC MAROHH Z T163324 K 0.000 GD  507 VS 5.20 DE 3.50 Q0750.0 QA 1.50 VS 5.20 3
 SPEC JAMCHH Z MO 14.5 ST0.130 OM  2.1 f00.852 R2.2582 AL-0.00 WI 40.0 MW  3.6 3
 SPEC JAMCHH Z T163327 K 0.000 GD  525 VS 5.20 DE 3.50 Q0750.0 QA 1.50 VS 5.20 3
 OLDACT:UP  18-02-01 21:53 OP:lv   STATUS:               ID:20180201162740     3
 OLDACT:UP  18-02-01 21:52 OP:lv   STATUS:               ID:20180201162740     3
 OLDACT:UP  18-02-01 21:51 OP:lv   STATUS:               ID:20180201162740     3
 OLDACT:UP  18-02-01 21:50 OP:lv   STATUS:               ID:20180201162740     3
 OLDACT:UP  18-02-01 21:49 OP:lv   STATUS:               ID:20180201162740     3
 OLDACT:REG 18-02-01 20:32 OP:lv   STATUS:               ID:20180201162740     3
 OLDACT:UP  18-02-01 21:55 OP:lv   STATUS:               ID:20180201162740     3
 ACTION:SPL 18-03-20 21:18 OP:pat  STATUS:               ID:20180201163130 L   I
 OLDACT:UP  18-02-02 20:56 OP:mg   STATUS:               ID:20180201163130 L   3
 OLDACT:UP  18-02-02 07:30 OP:dhb  STATUS:               ID:20180201163130 L   3
 OLDACT:UP  18-02-01 21:58 OP:lv   STATUS:               ID:20180201162740     3
 OLDACT:UP  18-02-01 21:58 OP:lv   STATUS:               ID:20180201162740     3
 OLDACT:UP  18-02-01 21:58 OP:lv   STATUS:               ID:20180201162740     3
 OLDACT:UP  18-02-01 21:57 OP:lv   STATUS:               ID:20180201162740     3
 OLDACT:UP  18-02-01 21:56 OP:lv   STATUS:               ID:20180201162740     3
 OLDACT:UP  18-02-01 21:56 OP:lv   STATUS:               ID:20180201162740     3
 OLDACT:UP  18-02-01 21:55 OP:lv   STATUS:               ID:20180201162740     3
 2018-02-01-1628-00M.COL___470                                                 6
 STAT SP IPHASW D HRMM SECON CODA AMPLIT PERI AZIMU VELO AIN AR TRES W  DIS CAZ7
 BAR2 EZ IP     C 1631 48.80                             165    0.0610 32.8  74 
 BAR2 EZ ES       1632  3.02                             165    0.2710 32.8  74 
 BAR2 EZ  I       1632  4.18       883.6 0.24                          32.8  74 
 PTB  HZ IP     C 1631 52.36                             137   -0.6710  109 272 
 PTB  HN ES       1632  9.50                             137   -0.9010  109 272 
 PTB  HZ  I       1632 13.04       429.3 0.14                           109 272 
 SPBC HZ IP     C 1631 53.47                             135   -0.2410  116 215 
 SPBC HN ES       1632 11.10                             135   -0.5010  116 215 
 SPBC HZ  I       1632 12.64       726.2 0.42                           116 215 
 PAM  EZ IP     D 1631 55.65                             133    0.6410  125  43 
 PAM  EN ES       1632 14.33                             133    0.4110  125  43 
 PAM  EZ  I       1632 17.09       430.4 0.30                           125  43 
 YPLC HZ EP       1631 58.86                             123   -0.14 9  172 136 
 YPLC HN ES       1632 20.79                             123   -0.22 9  172 136 
 TAM  HZ EP       1632  0.33                             121    0.00 9  186  92 
 TAM  HN ES       1632 23.14                             121   -0.24 9  186  92 
 NOR  HZ EP       1632  0.20                             121   -0.31 9  187 236 
 NOR  HN ES       1632 22.74                             121   -0.95 9  187 236 
 OCA  HZ EP       1632  1.42                             120    0.30 9  192   5 
 OCA  HN ES       1632 25.18                             120    0.40 9  192   5 
 ROSC BZ EP   9   1632  4.21                             118    1.11 0  207 207 
 ROSC BN ES       1632 29.98                             118    0.56 8  207 207 
 ROSC BZ  I       1632 38.31       483.0 0.45                           207 207 
 CVER HZ EP       1632  6.81                             115    1.16 8  230 197 
 CVER HN ES       1632 33.46                             115    0.60 8  230 197 
 CVER HZ  I       1632 41.06       395.8 0.30                           230 197 
 MEDECHZ EP   2   1632  6.08                             115    0.11 4  236 264 
 MEDECHN ES       1632 34.23                             115    0.81 8  236 264 
 GUY2CHZ EP       1632  9.00                             113    0.71 8  254 236 
 GUY2CHN ES       1632 38.31                             113    0.76 8  254 236 
 GUY2CHZ  I       1632 44.63       316.6 0.44                           254 236 
 VIL  EE ES       1632 39.41                             112    0.09 8  266 185 
 URE  HN ES   4   1632 37.01                             112   -2.00 0  266 301 
 URE  HZ  I       1632 46.39       392.8 0.20                           266 301 
 VIL  EZ EP       1632  8.76                             112   -0.53 8  266 185 
 VIL  EZ  I       1632 43.36       437.5 0.28                           266 185 
 URE  HZ EP       1632  8.67                             112   -0.44 8  266 301 
 NIZA HN ES   3   1632 45.46                             111    4.27 2  274 234 
 CBOC HZ EP       1632 12.57                             110    0.48 7  291 256 
 CBOC HN ES       1632 43.95                             110   -0.36 7  291 256 
 CBOC HZ  I       1632 53.54        88.4 0.42                           291 256 
 PTGC HZ IP   3 D 1632 10.94                             109   -1.48 2  295 150 
 PTGC HN ES   3   1632 42.32                             109   -2.58 2  295 150 
 PTGC HZ  I       1632 45.63       183.1 0.38                           295 150 
 IBA1CHE ES   2   1632 46.58                             109    0.22 4  301 221 
 DBB  HZ EP       1632 14.07                             108    0.05 7  308 281 
 DBB  HN ES       1632 47.23                             108   -0.51 7  308 281 
 DBB  HZ  I       1632 51.85       236.5 0.34                           308 281 
 DRL03HZ EP       1632 15.85                             107    0.75 7  319 360 
 DRL03HN ES       1632 50.43                             107    0.76 7  319 360 
 CCALAHZ EP   3   1632 18.02                             107    1.76 2  326 227 
 CCALAHN ES   4   1632 57.24                             107    5.51 0  326 227 
 PRA  HZ EP       1632 18.15                             106   -0.33 6  347 207 
 PRA  HN ES       1632 55.59                             106   -0.09 6  347 207 
 PRA  HZ  I       1633  3.00       273.2 0.24                           347 207 
 ORTC HZ EP       1632 19.02                             106    0.34 6  349 215 
 ORTC HN ES       1632 57.32                             106    1.27 6  349 215 
 ORTC HZ  I       1633  3.10       201.7 0.66                           349 215 
 LL6C HZ EP       1632 19.99                             105    0.36 6  357   3 
 LL6C HZ  I       1633  9.72        60.4 0.50                           357   3 
 PAL  HZ EP       1632 20.02                             105    0.11 6  359 240 
 PAL  HN ES   2   1632 57.24                             105   -0.99 3  359 240 
 PAL  HZ  I       1632 59.76        80.5 0.30                           359 240 
 APAC HZ EP       1632 22.76                             104    0.87 6  377 294 
 APAC HN ES       1633  1.55                             104   -0.22 6  377 294 
 APAC HZ  I       1633  5.02       137.4 0.36                           377 294 
 ARGC HZ EP   3   1632 25.69                             104    3.38 2  380 347 
 ARGC HN ES   4   1633  8.17                             104    5.66 0  380 347 
 ARGC HZ  I       1633 13.94        50.3 0.28                           380 347 
 SDV  BZ EP       1632 26.16                             103    0.25 6  408  50 
 SDV  B1 ES       1633  6.76                             103   -2.16 6  408  50 
 SDV  BZ  I       1633  9.53       119.6 0.40                           408  50 
 SJC  HZ IP   3 C 1632 25.77                             102   -1.28 1  419 333 
 SJC  HN ES   3   1633  8.75                             102   -2.19 1  419 333 
 SJC  HZ  I       1633 23.68        69.3 0.44                           419 333 
 YOT  HZ EP       1632 26.04                             102   -1.66 5  424 229 
 YOT  HN ES       1633 12.76                             102    0.67 5  424 229 
 YOT  HZ  I       1633 26.20        24.6 0.48                           424 229 
 VALLCHZ EP       1632 29.88                             101    0.08 5  443   3 
 VALLCHN ES       1633 15.52                             101   -0.32 5  443   3 
 PIZC HZ EP   3   1632 32.79                             101    0.52 1  464 249 
 BET  EZ EP   2   1632 32.88                             100   -0.40 2  471 207 
 BET  EN ES   3   1633 18.06                             100   -3.98 1  471 207 
 BET  EZ  I       1633 26.48        49.1 0.62                           471 207 
 MACC HZ EP   4   1633  9.66                             100   34.85 0  485 185 
 PTA  HZ EP   3   1632 33.81                             100   -1.00 1  485 279 
 MACC HN ES   4   1633 55.85                             100   31.10 0  485 185 
 MACC HZ  I       1634  2.24        65.0 0.58                           485 185 
 CAP2 HZ EP   2   1632 35.12                             100   -0.34 2  490 299 
 CAP2 HN ES   3   1633 23.49                             100   -2.42 1  490 299 
 MARO HZ EP       1632 35.73                             100   -0.12 4  491 214 
 MARO HN ES   3   1633 25.57                             100   -1.04 1  491 214 
 MARO HZ  I       1633 28.67        41.1 0.34                           491 214 
 CRJC HZ EP       1632 36.34                              99   -0.75 4  503   7 
 CRJC HN ES       1633 27.28                              99   -1.54 4  503   7 
 JAMC HZ EP       1632 37.31                              99   -0.70 4  509 224 
 JAMC HN ES   2   1633 28.59                              99   -1.87 2  509 224 
 JAMC HZ  I       1633 41.87        14.5 0.40                           509 224 
 SMAR HZ EP   2   1632 38.79                              99   -0.40 2  521 351 
 SMAR HN ES   2   1633 31.98                              99   -0.58 2  521 351 
 SMAR HZ  I       1633 44.95        26.2 0.33                           521 351 
 GARC HZ EP   9   1632 39.16                              99   -1.20 0  528 205 
 GARC HN ES       1633 32.74                                   -0.70 4  528 205 
 GARC HZ  I       1633 38.07       119.0 0.22                           528 205 
 UPD2 HE ES   4   1633 37.79                              98   -0.93 0  550 294 
 UPD2 HZ  I       1633 41.65        58.9 0.37                           550 294 
 CONO HZ EP       1632 45.63                              98    0.42 3  565 215 
 CONO HN ES   3   1633 39.74                              98   -3.54 1  565 215 
 CONO HZ  I       1633 51.34        20.8 0.38                           565 215 
 URI  HZ EP   3   1632 46.79                              97   -1.48 1  597  16 
 URI  HN ES   4   1633 43.86                              97   -4.85 0  597  16 
 URI  HZ  I       1633 53.54        26.5 0.44                           597  16 
 BBAC HN ES   2   1634  0.57                              96   -0.13 1  650 220 
                                                                                
 2018  2 1 1800 42.1 L   6.891 -73.267142.6  RSN  7 0.5 1.8LRSN                1
 GAP=113        0.91       5.3     5.6  6.6 -0.1644E+02  0.1419E+02 -0.4586E+01E
 Epicentro: BETULIA - SANTANDER                                                3
 ACTION:SPL 18-03-20 21:18 OP:pat  STATUS:               ID:20180201180042 L   I
 OLDACT:REG 18-02-01 20:39 OP:lv   STATUS:               ID:20180201175335     3
 2018-02-01-1758-00M.COL___472                                                 6
 STAT SP IPHASW D HRMM SECON CODA AMPLIT PERI AZIMU VELO AIN AR TRES W  DIS CAZ7
 BAR2 EZ EP       18 1  1.33                             167   -0.2710 34.3 164 
 BAR2 EZ ES       18 1 16.31                             167   -0.5210 34.3 164 
 BAR2 EZ  I       18 1 19.19        15.7 0.28                          34.3 164 
 PAM  EZ EP       18 1  4.32                             149    0.2110 79.9  52 
 PAM  EN ES       18 1 21.48                             149    0.1810 79.9  52 
 PAM  EZ  I       18 1 24.11         8.1 0.58                          79.9  52 
 PTB  HZ EP       18 1  8.09                             133    0.26 9  137 254 
 PTB  HN ES       18 1 28.56                             133    0.64 9  137 254 
 PTB  HZ  I       18 1 32.72         4.9 0.18                           137 254 
 SPBC HZ EP       18 1 10.63                             128    0.27 9  163 213 
 SPBC HN ES       18 1 32.05                             128   -0.36 9  163 213 
 SPBC HZ  I       18 1 37.17        11.4 0.18                           163 213 
 ROSC BZ EP   3   18 1 21.59                             116    1.32 2  255 207 
 SJC  HZ EP       18 1 35.49                             106   -0.21 6  394 328 
 SJC  HN ES   2   18 2 15.64                             106   -1.88 3  394 328 
 PRA  HZ EP       18 1 35.45                             106   -0.33 6  394 207 
 PRA  HN ES   1   18 2 17.45                             106   -0.22 4  394 207 
 PRA  HZ  I       18 2 23.57         3.5 0.40                           394 207 
                                                                                
