 2018  2 1 2315  1.9 L   4.305 -76.304130.2  RSN  6 0.3 1.5LRSN                1
 GAP=163        0.84       3.4     4.4  6.2 -0.4471E+01 -0.8724E+01  0.3240E+01E
 Epicentro: TRUJILLO - VALLE                                                   3
 ACTION:SPL 18-03-20 21:18 OP:pat  STATUS:               ID:20180201231501 L   I
 OLDACT:DUP 18-02-02 06:39 OP:dhb  STATUS:               ID:20180201230743d    3
 2018-02-01-2308-00M.COL___460                                                 6
 STAT SP IPHASW D HRMM SECON CODA AMPLIT PERI AZIMU VELO AIN AR TRES W  DIS CAZ7
 YOT  HZ EP       2315 19.67                             164   -0.2210 35.8 187 
 YOT  HN ES       2315 33.99                             164    0.1010 35.8 187 
 YOT  HZ  I       2315 36.98         5.1 0.12                          35.8 187 
 PAL  HZ EP       2315 20.82                             151   -0.4310 66.4   2 
 PAL  HE ES       2315 36.82                             151    0.5210 66.4   2 
 PAL  HZ  I       2315 39.68        16.7 0.38                          66.4   2 
 ORTC HZ EP       2315 25.90                             133    0.2510  125 110 
 ORTC HE ES   2   2315 43.72                             133   -0.42 5  125 110 
 ORTC HZ  I       2315 44.82         2.8 0.12                           125 110 
 JAMC HZ EP       2315 26.01                             133   -0.0610  127 199 
 JAMC HE ES       2315 44.72                             133   -0.1810  127 199 
 JAMC HZ  I       2315 48.30         4.7 0.14                           127 199 
 GUY2CHZ EP       2315 28.15                             129    0.06 9  146  46 
 GUY2CHE ES       2315 48.01                             129   -0.48 9  146  46 
 GUY2CHZ  I       2315 50.20         5.9 0.86                           146  46 
 PRA  HZ EP       2315 30.55                             124    0.59 9  170 113 
 PRA  HE ES       2315 51.83                             124    0.01 9  170 113 
 PRA  HZ  I       2315 53.17         3.9 0.44                           170 113 
                                                                                
 2018  2 1 2331 19.2 L   8.876 -77.829 21.6  RSN  5 0.5 2.4LRSN                1
 GAP=267        0.90       9.5     3.8  4.3 -0.1967E+02 -0.4282E+01 -0.5901E+01E
 Epicentro: FRONTERA CON PANAMA                                                3
 ACTION:SPL 18-03-20 21:18 OP:pat  STATUS:               ID:20180201233118 L   I
 OLDACT:UP  18-02-02 07:30 OP:dhb  STATUS:               ID:20180201233118 L   3
 OLDACT:UP  18-02-02 06:54 OP:dhb  STATUS:               ID:20180201232742     3
 OLDACT:REG 18-02-02 05:53 OP:dhb  STATUS:               ID:20180201232742     3
 2018-02-01-2328-00M.COL___460                                                 6
 STAT SP IPHASW D HRMM SECON CODA AMPLIT PERI AZIMU VELO AIN AR TRES W  DIS CAZ7
 UPD2 HZ IP     D 2331 26.84                             114    0.1710 41.7 209 
 UPD2 HE ES       2331 32.48                             114   -0.0410 41.7 209 
 UPD2 HZ  I       2331 35.60       621.4 0.28                          41.7 209 
 CAP2 HZ EP       2331 29.22                             107    0.2810 57.6 116 
 CAP2 HN ES       2331 36.21                             107   -0.3510 57.6 116 
 CAP2 HZ  I       2331 36.66       358.5 0.24                          57.6 116 
 APAC HZ EP       2331 44.77                              56   -0.01 9  175 128 
 APAC HE ES       2332  5.29                              56    0.54 9  175 128 
 APAC HZ  I       2332 12.75        14.3 0.52                           175 128 
 PTA  HZ EP   3   2331 45.03                              56   -1.79 2  191 179 
 PTA  HZ  I       2332  3.16        35.4 0.12                           191 179 
 DBB  HZ EP       2331 56.35                              55   -0.70 8  272 139 
                                                                                
 2018  2 1 2334 39.8 L  10.592 -73.847 20.2  RSN  4 0.2 1.4LRSN                1
 GAP=263        0.50       1.8     4.5  3.6 -0.3774E+01  0.9425E+01 -0.4618E+00E
 Epicentro: PUEBLO BELLO - CESAR                                               3
 ACTION:SPL 18-03-20 21:18 OP:pat  STATUS:               ID:20180201233439 L   I
 OLDACT:DUP 18-02-02 06:55 OP:dhb  STATUS:               ID:20180201232743d    3
 OLDACT:UP  18-02-02 06:54 OP:dhb  STATUS:               ID:20180201232742     3
 OLDACT:REG 18-02-02 05:53 OP:dhb  STATUS:               ID:20180201232742     3
 2018-02-01-2328-00M.COL___460                                                 6
 STAT SP IPHASW D HRMM SECON CODA AMPLIT PERI AZIMU VELO AIN AR TRES W  DIS CAZ7
 LL6C HZ EP       2334 57.75                              98   -0.0710  114 146 
 DRL02HZ EP       2334 57.77                              98   -0.0410  114 146 
 LL6C HZ ES       2335 11.73                              98   -0.1610  114 146 
 LL6C HZ  I       2335 13.19         9.8 0.72                           114 146 
 DRL02HN ES       2335 12.10                              98    0.2210  114 146 
 CRJC HZ EP       2334 58.47                              98    0.2910  116  66 
 CRJC HE ES       2335 12.38                              98   -0.1610  116  66 
 CRJC HZ  I       2335 13.54         7.8 0.10                           116  66 
 DRL03HZ EP       2335  0.82                              56   -0.1810  139 163 
 DRL03HE ES       2335 17.66                              56    0.1010  139 163 
                                                                                
 2018  2 1 2343 57.9 L   7.248 -78.224 12.7  RSN  6 0.7 2.3LRSN                1
 GAP=217        1.69       7.3     7.0  8.2  0.2905E+02  0.7543E+01 -0.1113E+02E
 Epicentro: O. PACIFICO NORTE                                                  3
 ACTION:SPL 18-03-20 21:18 OP:pat  STATUS:               ID:20180201234357 L   I
 OLDACT:REG 18-02-02 05:55 OP:dhb  STATUS:               ID:20180201233741     3
 2018-02-01-2338-00M.COL___461                                                 6
 STAT SP IPHASW D HRMM SECON CODA AMPLIT PERI AZIMU VELO AIN AR TRES W  DIS CAZ7
 PTA  HZ EP       2344  5.78                             101    0.0110 47.2 104 
 PTA  HE ES       2344 10.90                             101   -1.0010 47.2 104 
 PTA  HZ  I       2344 12.58       367.7 0.14                          47.2 104 
 UPD2 HZ EP       2344 21.01                              93    0.43 9  146   9 
 UPD2 HN ES       2344 38.65                              93    0.38 9  146   9 
 UPD2 HZ  I       2344 43.83        72.8 0.32                           146   9 
 CAP2 HZ EP       2344 24.39                              56   -0.74 9  182  32 
 CAP2 HN ES       2344 45.89                              56   -0.47 9  182  32 
 CAP2 HZ  I       2344 49.38        27.9 0.76                           182  32 
 APAC HZ EP       2344 27.14                              56    0.34 9  195  68 
 APAC HE ES       2344 49.90                              56    0.55 9  195  68 
 APAC HZ  I       2344 57.20        20.9 0.42                           195  68 
 DBB  EZ EP       2344 31.75                              56    1.24 8  224  96 
 BCIP BZ EP       2344 37.82                              56    0.76 7  277 320 
 BCIP B1 ES       2345  6.33                              56   -1.27 7  277 320 
 BCIP BZ  I       2345 17.22         9.2 0.45                           277 320 
                                                                                
 2018  2 1 2355 42.9 L   4.801 -76.183102.6  RSN  5 0.3 1.1LRSN                1
 GAP=125        0.87       2.8     4.7  6.7 -0.1417E+01 -0.8735E+01  0.1661E+01E
 Epicentro: EL CAIRO - VALLE                                                   3
 ACTION:SPL 18-03-20 21:18 OP:pat  STATUS:               ID:20180201235542 L   I
 OLDACT:REG 18-02-02 05:56 OP:dhb  STATUS:               ID:20180201234738     3
 2018-02-01-2348-00M.COL___457                                                 6
 STAT SP IPHASW D HRMM SECON CODA AMPLIT PERI AZIMU VELO AIN AR TRES W  DIS CAZ7
 PAL  HZ EP       2355 56.93                             170   -0.0310 16.0 316 
 PAL  HE ES       2356  7.59                             170   -0.3310 16.0 316 
 PAL  HZ  I       2356 10.63        10.5 0.16                          16.0 316 
 YOT  HZ EP       2356  1.24                             135   -0.2410 92.1 191 
 YOT  HE ES       2356 16.39                             135    0.4310 92.1 191 
 YOT  HZ  I       2356 17.55         6.4 0.38                          92.1 191 
 GUY2CHZ EP       2356  3.03                             132    0.1810  102  63 
 GUY2CHE ES       2356 18.30                             132   -0.1010  102  63 
 GUY2CHZ  I       2356 21.80         1.5 0.30                           102  63 
 CBOC HZ EP       2356  3.55                             127   -0.5010  119   9 
 CBOC HE ES       2356 21.10                             127    0.5610  119   9 
 CBOC HZ  I       2356 28.89         1.9 0.26                           119   9 
 ORTC HZ EP       2356  6.59                             121    0.26 9  143 133 
 ORTC HE ES       2356 24.39                             121   -0.21 9  143 133 
 ORTC HZ  I       2356 25.35         1.3 0.18                           143 133 
                                                                                
 2018  2 2 0027 37.2 L   6.835 -73.181148.0  RSN 24 0.6 3.1LRSN                1
 GAP= 74        1.30       3.1     3.7  6.2 -0.1564E+01  0.7498E+01 -0.6494E+00E
 Epicentro: ZAPATOCA - SANTANDER                                               3
 ACTION:SPL 18-03-20 21:18 OP:pat  STATUS:               ID:20180202002737 L   I
 OLDACT:UP  18-02-02 15:22 OP:dnl  STATUS:               ID:20180202001742d    3
 OLDACT:UP  18-02-02 15:21 OP:dnl  STATUS:               ID:20180202001742d    3
 OLDACT:UP  18-02-02 15:20 OP:dnl  STATUS:               ID:20180202001742d    3
 OLDACT:DUP 18-02-02 15:11 OP:dnl  STATUS:               ID:20180202001742d    3
 2018-02-02-0018-00M.COL___451                                                 6
 STAT SP IPHASW D HRMM SECON CODA AMPLIT PERI AZIMU VELO AIN AR TRES W  DIS CAZ7
 BAR2 EZ IP     C  027 57.25                             169    0.0810 26.8 180 
 BAR2 EZ ES        028 12.58                             169   -0.1610 26.8 180 
 BAR2 EZ  I        028 13.70       470.0 0.70                          26.8 180 
 PAM  EZ IP     C  028  0.03                             151    0.4010 77.1  44 
 PAM  EN ES        028 17.44                             151    0.3110 77.1  44 
 PAM  EZ  I        028 21.85       261.6 0.84                          77.1  44 
 PTB  HZ EP        028  3.73                             133   -0.34 9  145 257 
 PTB  HN ES        028 25.20                             133    0.17 9  145 257 
 PTB  HZ  I        028 26.96       159.6 0.18                           145 257 
 OCA  HZ EP        028  5.52                             131    0.23 9  156 354 
 OCA  HN ES        028 28.15                             131    0.95 9  156 354 
 TAM  HZ IP     D  028  5.39                             130   -0.10 9  160 106 
 TAM  HN ES        028 26.85                             130   -0.72 9  160 106 
 TAM  HZ  I        028 27.89        64.8 0.52                           160 106 
 SPBC HZ IP     C  028  6.03                             130    0.11 9  164 217 
 SPBC HE ES        028 28.58                             130    0.26 9  164 217 
 SPBC HZ  I        028 31.15       305.9 0.28                           164 217 
 ROSC BZ EP   9    028 16.93                             117    1.35 0  254 210 
 ROSC BN ES        028 47.79                             117    0.92 8  254 210 
 ROSC BZ  I        028 51.03       170.7 0.45                           254 210 
 CVER HZ EP        028 18.49                             115    0.59 8  274 201 
 CVER HZ  I        028 53.04        60.9 0.28                           274 201 
 URE  HZ EP        028 17.14                             115   -0.67 7  279 291 
 URE  HN ES        028 48.12                             115   -1.37 7  279 291 
 URE  HZ  I        028 58.25       128.7 0.26                           279 291 
 GUY2CHZ EP        028 21.62                             113    0.82 7  300 234 
 GUY2CHE ES   4    028 56.67                             113    1.86 0  300 234 
 GUY2CHZ  I        029  4.53        73.0 0.34                           300 234 
 VIL  EZ EP        028 20.79                             112   -0.26 7  306 191 
 VIL  EE ES        028 54.77                             112   -0.49 7  306 191 
 VIL  EZ  I        029  0.37        61.6 0.46                           306 191 
 PTGC HZ IP   4 D  028 20.07                             112   -1.65 0  314 158 
 PTGC HN ES   4    028 53.40                             112   -3.04 0  314 158 
 PTGC HZ  I        028 56.06        49.8 0.16                           314 158 
 DRL02HZ EP        028 22.32                             111   -0.22 7  321 358 
 DRL02HN ES        028 56.02                             111   -1.89 7  321 358 
 CBOC HZ EP   4    028 25.71                             111    1.80 0  331 251 
 CBOC HN ES        028 59.51                             111   -0.84 7  331 251 
 CBOC HZ  I        029 13.82        31.4 0.46                           331 251 
 DBB  EZ EP        028 25.56                             110    1.28 7  335 274 
 DBB  EN ES        029  0.68                             110   -0.33 7  335 274 
 DBB  EZ  I        029  5.53        34.2 0.18                           335 274 
 ARGC HZ EP        028 27.26                             109    0.89 6  354 341 
 ARGC HE ES        029  5.38                             109    0.66 6  354 341 
 ARGC HZ  I        029 16.18        21.5 0.46                           354 341 
 APAC HZ EP   2    028 31.20                             107    0.32 3  393 288 
 APAC HN ES        029 13.19                             107    0.43 6  393 288 
 APAC HZ  I        029 18.04        66.6 0.78                           393 288 
 PRA  HZ EP        028 30.66                             107   -0.30 6  393 209 
 PRA  HN ES        029 12.56                             107   -0.33 6  393 209 
 PRA  HZ  I        029 16.68        64.6 0.40                           393 209 
 ORTC HZ EP        028 31.61                             107    0.33 6  396 215 
 ORTC HN ES   3    029 14.52                             107    1.05 1  396 215 
 ORTC HZ  I        029 18.60        36.4 0.24                           396 215 
 SJC  HZ EP        028 31.47                             106   -0.73 6  404 327 
 SJC  HN ES   4    029 12.80                             106   -2.31 0  404 327 
 SJC  HZ  I        029 25.28        28.4 0.34                           404 327 
 PAL  HZ EP        028 32.73                             106    0.46 6  404 238 
 PAL  HE ES   4    029 13.72                             106   -1.50 0  404 238 
 PAL  HZ  I        029 22.46        29.1 0.24                           404 238 
 CRJC HZ EP   4    028 37.40                             104   -1.94 0  464   4 
 CRJC HE ES   4    029 26.19                             104   -1.62 0  464   4 
 CRJC HZ  I        029 30.60        33.7 0.42                           464   4 
 YOT  HZ EP   2    028 39.82                             104   -0.43 2  471 228 
 SMAR HZ EP        028 42.50                             103   -0.07 4  492 347 
 SMAR HE ES   4    029 29.48                             103   -4.09 0  492 347 
 SMAR HZ  I        029 36.82        19.9 0.28                           492 347 
                                                                                
 2018  2 2 0128 26.9 L  10.970 -74.759 28.1  RSN  9 0.4 2.2LRSN                1
 GAP=229        0.89       6.8     4.8  8.2 -0.2192E+02 -0.1314E+02  0.4432E+02E
 Epicentro: CANDELARIA - ATLANTICO                                             3
 ACTION:SPL 18-03-20 21:18 OP:pat  STATUS:               ID:20180202012826 L   I
 OLDACT:UP  18-02-02 15:27 OP:dnl  STATUS:               ID:20180202012442     3
 OLDACT:UP  18-02-02 15:27 OP:dnl  STATUS:               ID:20180202012442     3
 OLDACT:UP  18-02-02 15:27 OP:dnl  STATUS:               ID:20180202012442     3
 OLDACT:UP  18-02-02 15:27 OP:dnl  STATUS:               ID:20180202012442     3
 OLDACT:REG 18-02-02 12:33 OP:dnl  STATUS:               ID:20180202012442     3
 2018-02-02-0128-00M.COL___451                                                 6
 STAT SP IPHASW D HRMM SECON CODA AMPLIT PERI AZIMU VELO AIN AR TRES W  DIS CAZ7
 SMAR HZ EP        128 37.57                             105    0.0410 62.2  70 
 SMAR HE ES        128 45.89                             105    0.0510 62.2  70 
 SJC  HZ EP        128 45.48                              61   -0.6410  127 201 
 SJC  HN ES        129  1.71                              61    0.5910  127 201 
 SJC  HZ  I        129  2.80        29.7 0.40                           127 201 
 ARGC HZ EP        128 47.06                              61    0.02 9  135 155 
 ARGC HE ES        129  2.10                              61   -0.66 9  135 155 
 ARGC HZ  I        129  3.16        25.7 0.36                           135 155 
 CRJC HZ EP        128 55.65                              61   -0.24 8  205  88 
 CRJC HN ES        129 18.58                              61    0.06 8  205  88 
 DRL02HZ EP        128 56.56                              61   -0.14 8  213 130 
 LL6C HZ EP   2    128 56.61                              61   -0.10 4  213 130 
 LL6C HZ  I        129 26.97        18.2 0.50                           213 130 
 DRL02HN ES   4    129 18.49                              61   -1.48 0  213 130 
 LL6C HZ ES   4    129 18.48                              61   -1.49 0  213 130 
 DRL03HZ EP        128 58.62                              61    0.48 8  224 141 
 DRL03HE ES        129 22.94                              61    0.42 8  224 141 
 OCA  HZ EP        129 13.30                              60    0.51 7  341 152 
 OCA  HE ES   3    129 47.47                              60   -1.13 2  341 152 
 OCA  HZ  I        130  2.60        25.7 0.54                           341 152 
 URE  HZ EP   4    129 17.73                              60    2.02 0  366 193 
 URE  HN ES   3    129 53.37                              60   -0.43 2  366 193 
 URE  HZ  I        130  2.07         3.9 0.14                           366 193 
                                                                                
