 2018  2 1 0602 57.4 L   6.593 -73.593114.3  RSN  5 0.5 1.4LRSN                1
 GAP=117        0.81       5.0     4.0  7.2 -0.1252E+02  0.3736E+01 -0.4299E+01E
 Epicentro: EL CARMEN - SANTANDER                                              3
 ACTION:SPL 18-03-20 21:18 OP:pat  STATUS:               ID:20180201060257 L   I
 2018-02-01-0558-00M.COL___445                                                 6
 STAT SP IPHASW D HRMM SECON CODA AMPLIT PERI AZIMU VELO AIN AR TRES W  DIS CAZ7
 BAR2 EZ EP        6 3 14.02                             156   -0.0210 45.4  90 
 BAR2 EZ ES        6 3 26.70                             156   -0.3510 45.4  90 
 PTB  HZ EP        6 3 16.90                             137   -0.2010 95.6 267 
 PTB  HE ES        6 3 32.31                             137   -0.1810 95.6 267 
 PTB  HZ  I        6 3 33.01         5.6 0.24                          95.6 267 
 SPBC HZ EP        6 3 18.95                             131   -0.1010  117 207 
 SPBC HN ES        6 3 36.46                             131    0.4910  117 207 
 SPBC HZ  I        6 3 38.43         8.2 0.12                           117 207 
 PAM  EZ EP        6 3 20.69                             128   -0.0210  129  50 
 PAM  EN ES        6 3 39.23                             128    0.3110  129  50 
 PAM  EZ  I        6 3 40.76         2.3 0.24                           129  50 
 OCA  HN ES   3    6 3 50.73                             117    2.37 2  185   9 
                                                                                
 2018  2 1 0626 35.2 L   3.414 -74.726  0.0  RSN 19 0.9 2.3LRSN                1
 GAP= 72        1.63       3.1     3.3  5.6 -0.2845E+01  0.2596E+01 -0.2296E+01E
 Epicentro: COLOMBIA - HUILA                                                   3
 ACTION:SPL 18-03-20 21:18 OP:pat  STATUS:               ID:20180201062635 L   I
 OLDACT:UP  18-02-07 07:50 OP:migu STATUS:               ID:20180201062635 L   3
 2018-02-01-0618-00M.COL___445                                                 6
 STAT SP IPHASW D HRMM SECON CODA AMPLIT PERI AZIMU VELO AIN AR TRES W  DIS CAZ7
 PRA  HZ IP     C  626 41.99                              47   -0.1710 37.6 332 
 PRA  HE ES        626 47.99                              47    0.4510 37.6 332 
 PRA  HZ  I        626 50.01       197.9 0.34                          37.6 332 
 ORTC HZ EP        626 48.09                              47   -0.4310 79.6 313 
 ORTC HN ES        626 59.07                              47    0.2010 79.6 313 
 ORTC HZ  I        627  2.83       119.9 0.14                          79.6 313 
 BET  EZ EP        626 52.61                              47   -0.3010  108 225 
 BET  EN ES        627  6.66                              47   -0.0310  108 225 
 BET  EZ  I        627  8.84        36.2 0.20                           108 225 
 VIL  EZ EP        626 57.25                              47   -0.24 9  138  56 
 VIL  EN ES        627 15.31                              47    0.47 9  138  56 
 VIL  EZ  I        627 20.84       157.0 0.34                           138  56 
 CVER HZ EP        626 57.86                              47   -0.60 9  142  31 
 CVER HN ES   3    627 15.84                              47   -0.72 2  142  31 
 CVER HZ  I        627 18.46       136.2 0.50                           142  31 
 MARO HZ EP        626 58.42                              47   -1.09 9  151 245 
 MARO HE ES   3    627 15.98                              47   -2.46 2  151 245 
 MARO HZ  I        627 18.93        81.4 0.10                           151 245 
 CCALAHZ EP   2    626 59.25                              47   -1.20 5  157 320 
 CCALAHE ES        627 19.01                              47   -1.10 9  157 320 
 GARC HZ EP   3    626 59.34                              47   -1.63 2  160 212 
 GARC HN ES   3    627 18.87                              47   -2.16 2  160 212 
 ROSC BZ EP   9    627  1.67                              47    0.01 0  164  16 
 ROSC BN ES        627 22.45                              47    0.18 9  164  16 
 ROSC BZ  I        627 26.12        43.9 0.45                           164  16 
 MACC HZ EP   9    627 37.17                              47   34.84 0  171 145 
 MACC HN ES        627 56.85                                   -1.45 9  171 145 
 YOT  HZ EP   2    627  3.61                              37   -1.53 4  191 289 
 YOT  HN ES   2    627 27.00                              37   -1.46 4  191 289 
 YOT  HZ  I        627 28.47        16.0 0.26                           191 289 
 GUY2CHZ EP        627  8.59                              37    0.30 8  212 341 
 GUY2CHN ES        627 33.68                              37   -0.38 8  212 341 
 GUY2CHZ  I        627 35.25         9.1 0.46                           212 341 
 JAMC HN EP   2    627  9.49                              37    0.85 4  218 264 
 JAMC HE ES   4    627 30.99                              37   -3.69 0  218 264 
 JAMC HZ  I        627 36.29         9.1 0.22                           218 264 
 CONO HZ EP        627  9.81                              37    0.29 8  221 237 
 CONO HE ES        627 36.90                              37    0.65 8  221 237 
 CONO HZ  I        627 40.74        33.2 0.24                           221 237 
 POP2 HZ EP        627 11.65                              37    0.52 8  237 246 
 POP2 HN ES        627 40.33                              37    1.22 8  237 246 
 POP2 HZ  I        627 41.08        13.3 0.24                           237 246 
 PAL  HZ EP        627 10.89                              37   -0.23 8  239 314 
 PAL  HN ES        627 40.89                              37    1.80 8  239 314 
 PAL  HZ  I        627 42.11        12.3 0.24                           239 314 
 SPBC HZ EP        627 13.89                              37    0.38 8  258  16 
 SPBC HN ES   4    627 46.97                              37    3.62 0  258  16 
 SPBC HZ  I        627 52.12        12.5 0.34                           258  16 
 PTGC HZ EP   3    627 20.00                              36    1.25 2  301  73 
 PTGC HE ES        627 53.44                              36    0.76 7  301  73 
 PTGC HZ  I        628  3.43        14.8 0.22                           301  73 
 YPLC HN ES   4    628 13.70                              36   12.16 0  340  50 
 PTLC HE ES   3    628 19.08                              36    5.34 1  396 181 
                                                                                
 2018  2 1 0638 35.3 L   6.876 -73.148147.1  RSN 16 0.7 2.1LRSN                1
 GAP= 62        1.10       3.8     4.0  6.3 -0.4231E+01  0.6161E+01  0.1274E+01E
 Epicentro: LOS SANTOS - SANTANDER                                             3
 ACTION:SPL 18-03-20 21:18 OP:pat  STATUS:               ID:20180201063835 L   I
 OLDACT:UP  18-02-01 18:23 OP:leo  STATUS:               ID:20180201062446     3
 2018-02-01-0628-00M.COL___436                                                 6
 STAT SP IPHASW D HRMM SECON CODA AMPLIT PERI AZIMU VELO AIN AR TRES W  DIS CAZ7
 BAR2 EZ IP     C  638 54.89                             167   -0.3510 31.6 187 
 BAR2 EZ ES        639 11.40                             167    0.5810 31.6 187 
 BAR2 EZ  I        639 19.55        21.1 0.26                          31.6 187 
 PAM  EZ EP        638 57.42                             153    0.1610 71.3  44 
 PAM  EN ES        639 14.43                             153   -0.0010 71.3  44 
 PAM  EZ  I        639 15.00        32.2 0.20                          71.3  44 
 PTB  HZ EP        639  1.60                             132   -0.87 9  149 256 
 PTB  HN ES        639 23.50                             132   -0.20 9  149 256 
 PTB  HZ  I        639 25.36        18.5 0.22                           149 256 
 OCA  HZ EP        639  2.58                             132   -0.32 9  152 353 
 OCA  HE ES        639 24.16                             132   -0.30 9  152 353 
 OCA  HZ  I        639 25.50        43.3 0.32                           152 353 
 TAM  HZ EP        639  3.21                             130   -0.07 9  158 108 
 TAM  HN ES        639 25.16                             130    0.02 9  158 108 
 TAM  HZ  I        639 31.18         7.0 0.50                           158 108 
 SPBC HZ EP        639  3.96                             128   -0.51 9  170 217 
 SPBC HN ES        639 27.54                             128    0.29 9  170 217 
 SPBC HZ  I        639 33.61        19.2 0.32                           170 217 
 YPLC HZ EP   3    639  5.37                             126   -0.51 2  184 153 
 YPLC HN ES   3    639 28.67                             126   -1.10 2  184 153 
 ROSC BZ EP   4    639 15.46                             116    1.24 0  260 210 
 ROSC BN ES   4    639 46.67                             116    2.06 0  260 210 
 ROSC BZ  I        639 53.50        10.8 0.35                           260 210 
 URE  HN ES   3    639 45.96                             114   -1.86 2  281 290 
 DRL03HZ EP        639 17.70                             114    1.71 7  281 353 
 DRL03HN ES   3    639 46.59                             114   -1.18 2  281 353 
 GUY2CHZ EP        639 19.20                             112   -0.25 7  306 233 
 GUY2CHN ES   3    639 55.91                             112    1.98 2  306 233 
 CBOC HZ EP        639 23.45                             110    0.95 7  336 251 
 CBOC HN ES   3    639 58.14                             110   -1.21 2  336 251 
 CBOC HZ  I        640  3.78         2.3 0.18                           336 251 
 DBB  HN ES   3    639 59.97                             110    0.28 2  339 273 
 SDV  BZ EP   3    639 23.77                             109   -0.99 2  355  51 
 SDV  B2 ES   3    640  1.22                             109   -2.15 2  355  51 
 SDV  BZ  I        640  4.00         2.0 0.35                           355  51 
 PRA  HZ EP        639 30.33                             106    0.67 6  399 209 
 PRA  HE ES        640 12.26                             106    0.17 6  399 209 
 PRA  HZ  I        640 18.37         6.2 0.46                           399 209 
 ORTC HN ES   3    640 12.63                             106   -0.06 1  402 215 
                                                                                
 2018  2 1 0747 21.1 L   6.862 -73.188146.3  RSN  6 0.3 1.5LRSN                1
 GAP=150        0.63       6.5     8.3  5.9 -0.4527E+02  0.2536E+02 -0.1064E+02E
 Epicentro: ZAPATOCA - SANTANDER                                               3
 ACTION:SPL 18-03-20 21:18 OP:pat  STATUS:               ID:20180201074721 L   I
 2018-02-01-0738-00M.COL___442                                                 6
 STAT SP IPHASW D HRMM SECON CODA AMPLIT PERI AZIMU VELO AIN AR TRES W  DIS CAZ7
 BAR2 EZ EP        747 40.67                             168   -0.2410 29.8 179 
 BAR2 EZ ES        747 56.09                             168   -0.2910 29.8 179 
 BAR2 EZ  I        748  1.40         6.3 0.46                          29.8 179 
 PAM  EZ EP        747 43.30                             151    0.0710 75.5  46 
 PAM  EN ES        748  0.75                             151    0.2310 75.5  46 
 PAM  EZ  I        748  3.01         4.4 0.48                          75.5  46 
 PTB  HZ EP        747 47.56                             133   -0.24 9  145 256 
 PTB  HN ES   3    748  8.48                             133   -0.17 2  145 256 
 PTB  HZ  I        748 14.57         3.2 0.24                           145 256 
 SPBC HZ EP        747 50.08                             129    0.23 9  166 216 
 SPBC HN ES        748 12.71                             129    0.41 9  166 216 
 SPBC HZ  I        748 21.50         4.3 0.18                           166 216 
 GUY2CHZ ES   3    748 39.66                             112    0.88 2  301 233 
 PRA  HE ES        748 56.83                             106   -0.31 6  396 208 
                                                                                
 2018  2 1 0832 41.3 L   2.497 -75.938  4.0  RSN 12 0.6 1.5LRSN                1
 GAP=117        1.36       2.5     2.3  5.3 -0.9576E+00 -0.5032E+00 -0.1731E+01E
 Epicentro: LA PLATA - HUILA                                                   3
 ACTION:SPL 18-03-20 21:18 OP:pat  STATUS:               ID:20180201083241 L   I
 OLDACT:UP  18-02-01 18:42 OP:mg   STATUS:               ID:20180201082742     3
 OLDACT:REG 18-02-01 13:53 OP:jlp  STATUS:               ID:20180201082742     3
 2018-02-01-0828-00M.COL___442                                                 6
 STAT SP IPHASW D HRMM SECON CODA AMPLIT PERI AZIMU VELO AIN AR TRES W  DIS CAZ7
 MARO HZ EP        832 47.20                              47   -0.7410 38.2 357 
 MARO HN ES        832 52.06                              47   -1.0910 38.2 357 
 MARO HZ  I        832 52.50        82.4 0.11                          38.2 357 
 CONO HZ EP        832 50.70                              47    0.0210 54.4 250 
 CONO HN ES        832 57.76                              47   -0.2710 54.4 250 
 CONO HZ  I        832 58.57        47.8 0.13                          54.4 250 
 GARC HZ EP     C  832 50.91                              47   -0.3310 60.2 125 
 GARC HE ES        832 58.48                              47   -0.5510 60.2 125 
 GARC HZ  I        833  0.99        51.4 0.20                          60.2 125 
 POP2 HZ EP        832 54.81                              47    0.2610 82.2 273 
 POP2 HN ES   1    833  4.63                              47   -0.29 7 82.2 273 
 SOTO HE ES        833  6.19                              47    0.1510 84.5 242 
 JAMC HZ EP        832 59.87                              47    0.5210  114 314 
 JAMC HN ES        833 13.66                              47    0.2110  114 314 
 JAMC HZ  I        833 14.23         2.8 0.15                           114 314 
 BBAC HZ EP        833  6.24                              47    0.71 9  155 250 
 YOT  HZ EP        833  7.47                              47   -0.34 9  170 345 
 YOT  HN ES        833 27.98                              47   -0.54 9  170 345 
 YOT  HZ  I        833 28.49         1.3 0.32                           170 345 
 ORTC HZ EP        833  8.85                              47    0.58 9  174  26 
 ORTC HN ES        833 29.82                              47    0.49 9  174  26 
 PRA  HZ EP     C  833  9.50                              37    0.65 9  178  41 
 PRA  HN ES        833 30.89                              37    0.52 9  178  41 
 PRA  HZ  I        833 34.96         9.7 0.32                           178  41 
 ANIL HZ EP   3    833 18.64                              37    3.22 2  228  15 
 ANIL HN ES   2    833 43.31                              37    1.24 4  228  15 
 MACC HZ EP   9    833 54.45                              37   38.44 0  236  99 
 MACC HN ES        834 21.19                              37   -0.36 8  236  99 
                                                                                
 2018  2 1 0859 29.5 L   6.808 -73.149140.7  RSN 13 0.6 1.9LRSN                1
 GAP= 95        0.99       4.6     3.9  9.1 -0.5026E+01  0.5014E+01  0.8700E+01E
 Epicentro: LOS SANTOS - SANTANDER                                             3
 ACTION:SPL 18-03-20 21:18 OP:pat  STATUS:               ID:20180201085929 L   I
 OLDACT:UP  18-02-01 18:53 OP:mg   STATUS:               ID:20180201085741     3
 OLDACT:UP  18-02-01 18:52 OP:mg   STATUS:               ID:20180201085741     3
 OLDACT:REG 18-02-01 14:01 OP:jlp  STATUS:               ID:20180201085741     3
 2018-02-01-0858-00M.COL___442                                                 6
 STAT SP IPHASW D HRMM SECON CODA AMPLIT PERI AZIMU VELO AIN AR TRES W  DIS CAZ7
 BAR2 EZ EP        859 48.80                             170    0.2310 24.2 189 
 BAR2 EZ  I        9 0  5.40        16.6 0.22                          24.2 189 
 PAM  EZ EP        859 51.64                             150    0.4610 76.9  40 
 PAM  EZ  I        9 0 11.46         8.6 0.33                          76.9  40 
 PTB  HZ EP        859 55.29                             131   -0.78 9  148 258 
 PTB  HN ES        9 0 16.13                             131   -0.64 9  148 258 
 PTB  HZ  I        9 0 19.27         5.4 0.11                           148 258 
 TAM  HN ES        9 0 17.76                             129   -0.43 9  156 105 
 TAM  HZ  I        9 0 19.38         6.6 0.38                           156 105 
 OCA  HN ES   1    9 0 19.46                             128    0.39 7  159 353 
 OCA  HZ  I        9 0 25.29        15.8 0.23                           159 353 
 SPBC HZ EP        859 57.72                             128    0.03 9  164 219 
 SPBC HN ES        9 0 20.30                             128    0.65 9  164 219 
 SPBC HZ  I        9 0 26.21        12.4 0.26                           164 219 
 ROSC BZ EP   9    9 0  9.20                             115    1.76 0  253 211 
 ROSC BE ES        9 0 38.86                             116    0.09 8  253 211 
 ROSC BZ  I        9 0 42.02         6.9 0.38                           253 211 
 GUY2CHZ EP   1    9 0 12.91                             111   -0.02 5  301 235 
 GUY2CHN ES   3    9 0 48.40                             111    1.61 2  301 235 
 GUY2CHZ  I        9 0 54.36         3.7 0.67                           301 235 
 PTGC HZ EP   2    9 0 12.02                             110   -1.25 4  310 159 
 PTGC HE ES   3    9 0 45.27                             110   -2.12 2  310 159 
 PTGC HZ  I        9 0 46.80         5.6 0.25                           310 159 
 ELA  HE ES   4    9 0 55.96                             109    3.35 0  329 229 
 ELA  HZ  I        9 1  0.43         3.0 0.35                           329 229 
 CBOC HZ EP   1    9 0 16.58                             109    0.35 5  334 252 
 CBOC HE ES   1    9 0 52.33                             109   -0.33 5  334 252 
 PRA  HZ EP        9 0 22.93                             106   -0.02 6  393 209 
 PRA  HN ES        9 1  4.68                             106    0.06 6  393 209 
 PRA  HZ  I        9 1  9.20         3.4 0.33                           393 209 
 ORTC HZ EP        9 0 24.05                             105    0.71 6  396 216 
 ORTC HN ES   2    9 1  6.30                             105    0.99 3  396 216 
 ORTC HZ  I        9 1 12.83         1.5 0.31                           396 216 
 SJC  HN ES   4    9 1  4.17                             105   -3.77 0  408 327 
                                                                                
