 2018  2 1 0911 15.4 L   8.167 -73.034154.0  RSN  5 0.2 1.7LRSN                1
 GAP=234        0.35       2.2     2.1  2.9  0.1104E+01  0.2102E+01  0.1851E+01E
 Epicentro: HACARI - N.SANTANDER                                               3
 ACTION:SPL 18-03-20 21:18 OP:pat  STATUS:               ID:20180201091115 L   I
 OLDACT:DUP 18-02-01 18:51 OP:leo  STATUS:               ID:20180201090739d    3
 2018-02-01-0908-00M.COL___442                                                 6
 STAT SP IPHASW D HRMM SECON CODA AMPLIT PERI AZIMU VELO AIN AR TRES W  DIS CAZ7
 OCA  HZ EP        911 36.17                             168    0.0510 32.4 284 
 OCA  HN ES        911 52.20                             168   -0.0710 32.4 284 
 OCA  HZ  I        911 53.75        24.6 0.32                          32.4 284 
 PAM  EZ EP        911 39.97                             146    0.1110 98.7 158 
 PAM  EN ES        911 58.82                             146   -0.1010 98.7 158 
 PAM  EZ  I        911 59.40         4.8 0.18                          98.7 158 
 BAR2 EZ EP        911 45.91                             129    0.04 9  175 185 
 BAR2 EZ ES        912  9.53                             129   -0.08 9  175 185 
 BAR2 EZ  I        912 17.81         3.4 0.30                           175 185 
 PTB  HZ EP        911 52.11                             119    0.08 8  239 221 
 PTB  HN ES        912 20.68                             119    0.09 8  239 221 
 PTB  HZ  I        912 31.96         2.6 0.16                           239 221 
 URE  HZ EP   3    911 55.17                             115   -1.23 2  279 261 
 URE  HN ES        912 28.32                             115   -0.05 7  279 261 
 URE  HZ  I        912 37.32         3.5 0.22                           279 261 
                                                                                
 2018  2 1 0914  0.4 L   4.742 -76.590 68.2  RSN 20 0.7 2.3LRSN                1
 GAP=101        1.80       3.7     3.5  9.8 -0.2419E+01 -0.4669E+01  0.7781E+01E
 Epicentro: SIPI - CHOCO                                                       3
 ACTION:SPL 18-03-20 21:18 OP:pat  STATUS:               ID:20180201091400 L   I
 OLDACT:UP  18-02-09 08:30 OP:migu STATUS:               ID:20180201091400 L   3
 OLDACT:UP  18-02-07 07:50 OP:migu STATUS:               ID:20180201091400 L   3
 2018-02-01-0908-00M.COL___442                                                 6
 STAT SP IPHASW D HRMM SECON CODA AMPLIT PERI AZIMU VELO AIN AR TRES W  DIS CAZ7
 PAL  HZ EP        914 10.38                             147   -0.9910 38.5  62 
 PAL  HN ES        914 19.09                             147   -0.8710 38.5  62 
 PAL  HZ  I        914 21.05       206.0 0.16                          38.5  62 
 YOT  HZ EP        914 14.42                             121   -1.4510 88.2 162 
 YOT  HE ES        914 26.64                             121   -1.3310 88.2 162 
 YOT  HZ  I        914 27.04        64.1 0.22                          88.2 162 
 PIZC HZ EP        914 15.94                             121    0.1810 88.9 286 
 PIZC HN ES        914 28.97                             121    1.1910 88.9 286 
 PIZC HZ  I        914 34.92        75.6 0.36                          88.9 286 
 CCALAHZ EP        914 18.15                             115   -0.2010  110 104 
 CCALAHE ES        914 33.40                             115    1.0210  110 104 
 MAL  EZ EP        914 19.01                             113    0.3210  116 226 
 MAL  EE ES        914 33.91                             113    0.9210  116 226 
 MAL  EZ  I        914 40.90        39.3 0.46                           116 226 
 NIZA HZ EP        914 20.64                             111    0.0510  129  74 
 NIZA HN ES   4    914 39.56                             111    3.19 0  129  74 
 ELA  HZ EP        914 20.98                             111   -0.3310  133  84 
 ELA  HE ES        914 38.59                             111    0.9310  133  84 
 ELA  HZ  I        914 40.82        64.6 0.36                           133  84 
 ANIL HZ EP        914 21.25                             110   -0.0110  135 102 
 ANIL HE ES        914 38.24                             110    0.6810  135 102 
 RECRCHZ EP        914 21.99                             109   -0.13 9  139  80 
 RECRCHN ES        914 39.94                             109    0.84 9  139  80 
 CBOC HZ EP        914 21.17                             109   -0.51 9  140  27 
 CBOC HE ES        914 38.22                             109   -0.09 9  140  27 
 CBOC HZ  I        914 40.96        19.9 0.18                           140  27 
 GUY2CHZ EP        914 22.84                             108    0.04 9  146  69 
 GUY2CHN ES   4    914 41.77                             108    1.46 0  146  69 
 GUY2CHZ  I        914 44.58        23.6 0.58                           146  69 
 JAMC HZ EP   4    914 23.47                             105   -1.76 0  169 183 
 JAMC HN ES   4    914 42.81                             105   -1.82 0  169 183 
 JAMC HZ  I        914 44.33        44.1 0.24                           169 183 
 ORTC HZ IP     C  914 25.41                             104   -0.32 9  175 122 
 ORTC HN ES        914 45.94                             104    0.41 9  175 122 
 ORTC HZ  I        914 53.08        17.5 0.62                           175 122 
 PRA  HZ IP     C  914 30.80                             101   -0.40 8  221 121 
 PRA  HE ES        914 55.97                             101    0.70 8  221 121 
 PRA  HZ  I        914 57.96        21.5 0.34                           221 121 
 MARO HZ EP        914 31.76                             101    0.15 8  222 161 
 MARO HE ES        914 56.77                             101    0.78 8  222 161 
 MARO HZ  I        914 59.82        14.8 0.18                           222 161 
 POP2 HZ EP        914 33.68                              99   -0.56 8  244 182 
 POP2 HN ES        915  0.30                              99   -0.37 8  244 182 
 POP2 HZ  I        915  1.66        13.2 0.76                           244 182 
 CONO HE ES        915  7.46                              98    0.82 8  268 175 
 GARC HZ EP        914 41.62                              97   -0.46 7  308 157 
 GARC HE ES        915 14.20                              97   -0.43 7  308 157 
 GARC HZ  I        915 17.26        17.2 0.26                           308 157 
 PTB  HZ EP        914 40.62                              97   -1.30 7  309  50 
 PTB  HN ES        915 14.87                              97    0.54 7  309  50 
 VIL  EZ EP   4    914 45.50                              96    0.97 0  329 102 
 VIL  EN ES   4    915 22.98                              96    4.00 0  329 102 
 VIL  EZ  I        915 25.44        10.3 0.44                           329 102 
                                                                                
 2018  2 1 0943 24.6 L   6.786 -73.150143.9  RSN 14 0.8 2.1LRSN                1
 GAP= 65        1.54       5.2     5.1  8.5 -0.6916E+01  0.9157E+01  0.1103E+02E
 Epicentro: LOS SANTOS - SANTANDER                                             3
 ACTION:SPL 18-03-20 21:18 OP:pat  STATUS:               ID:20180201094324 L   I
 OLDACT:UP  18-02-01 19:03 OP:leo  STATUS:               ID:20180201093741     3
 2018-02-01-0938-00M.COL___442                                                 6
 STAT SP IPHASW D HRMM SECON CODA AMPLIT PERI AZIMU VELO AIN AR TRES W  DIS CAZ7
 BAR2 EZ EP        943 43.79                             171   -0.1610 21.7 190 
 BAR2 EZ ES        943 58.75                             171   -0.3110 21.7 190 
 BAR2 EZ  I        943 59.85        40.5 0.26                          21.7 190 
 PAM  EZ EP        943 46.59                             150   -0.0910 78.9  39 
 PAM  EE ES        944  4.12                             150    0.1910 78.9  39 
 PAM  EZ  I        944  5.90        20.5 0.46                          78.9  39 
 PTB  HZ EP        943 50.45                             132   -0.87 9  147 259 
 PTB  HN ES        944 11.73                             132   -0.46 9  147 259 
 PTB  HZ  I        944 18.06         8.0 0.50                           147 259 
 TAM  HZ EP        943 52.21                             130    0.10 9  155 104 
 TAM  HE ES        944 13.94                             130    0.35 9  155 104 
 SPBC HZ EP        943 52.89                             129    0.10 9  162 219 
 SPBC HE ES        944 15.07                             129    0.27 9  162 219 
 SPBC HZ  I        944 21.83        19.1 0.32                           162 219 
 OCA  HZ EP        943 52.53                             129   -0.35 9  162 353 
 OCA  HN ES        944 15.79                             129    0.83 9  162 353 
 OCA  HZ  I        944 18.15        27.5 0.16                           162 353 
 ROSC BN ES   4    944 34.00                             116    2.06 0  251 211 
 URE  HZ EP        944  4.29                             113   -1.28 7  284 292 
 URE  HN ES   3    944 34.70                             113   -2.85 2  284 292 
 URE  HZ  I        944 44.68         6.7 0.18                           284 292 
 GUY2CHZ EP        944 10.30                             112    2.35 7  300 235 
 GUY2CHN ES   3    944 43.31                             112    1.52 2  300 235 
 GUY2CHZ  I        944 52.17         5.5 0.56                           300 235 
 VIL  EZ EP        944  7.13                             112   -0.59 7  302 192 
 VIL  EZ  I        944 48.81         6.5 0.42                           302 192 
 PTGC HZ EP        944  7.10                             111   -1.10 7  307 158 
 PTGC HE ES   3    944 40.38                             111   -1.85 2  307 158 
 PTGC HZ  I        944 46.88         6.9 0.28                           307 158 
 ELA  HE ES        944 48.29                             110    0.74 7  328 230 
 ELA  HZ  I        944 58.65         4.7 0.82                           328 230 
 CBOC HZ EP        944 12.17                             110    0.86 7  333 252 
 CBOC HN ES   3    944 48.22                             110    0.46 2  333 252 
 CBOC HZ  I        944 57.03         1.7 0.66                           333 252 
 PRA  HZ EP        944 18.35                             106    0.51 6  390 210 
 PRA  HN ES        944 58.57                             106   -0.83 6  390 210 
 PRA  HZ  I        945  4.92         4.3 0.44                           390 210 
 ORTC HN ES        945  0.88                             106    0.76 6  394 216 
 ORTC HZ  I        945  4.70         2.5 0.42                           394 216 
 PTLC HN ES   4    944 58.16                              96   -86.6 0  791 193 
                                                                                
 2018  2 1 1251 20.5 L   5.121 -74.630 20.0  RSN 10 0.6 1.6LRSN                1
 GAP= 89        1.45       3.2     2.7  4.6 -0.1888E+01  0.1479E+01  0.5586E+00E
 Epicentro: GUADUAS - CUNDINAMARCA                                             3
 ACTION:SPL 18-03-20 21:18 OP:pat  STATUS:               ID:20180201125120 L   I
 2018-02-01-1248-00M.COL___463                                                 6
 STAT SP IPHASW D HRMM SECON CODA AMPLIT PERI AZIMU VELO AIN AR TRES W  DIS CAZ7
 ROSC BZ EP       1251 28.89                             112   -0.0910 46.4 132 
 ROSC BN ES       1251 36.63                             112    1.0310 46.4 132 
 ROSC BZ  I       1251 39.26        22.7 0.25                          46.4 132 
 RECRCHZ EP       1251 34.57                             102    0.2410 82.0 258 
 RECRCHN ES       1251 45.01                             102   -0.1310 82.0 258 
 GUY2CHZ IP     D 1251 34.96                             102    0.6810 82.2 278 
 GUY2CHN ES       1251 45.55                             102    0.5010 82.2 278 
 GUY2CHZ  I       1251 46.23         7.0 0.11                          82.2 278 
 SPBC HZ EP       1251 34.06                             101   -0.2710 85.3  46 
 SPBC HN ES       1251 44.14                             101   -0.9910 85.3  46 
 ANIL HZ EP       1251 37.44                              99   -0.8610  110 231 
 ANIL HE ES   2   1251 50.40                              99   -1.79 5  110 231 
 ANIL HZ  I       1251 54.66        27.1 0.10                           110 231 
 CCALAHE ES       1251 56.35                              56   -0.3910  130 239 
 ORTC HZ EP   1   1251 42.90                              56   -0.32 7  150 207 
 ORTC HN ES   1   1252  0.88                              56   -0.07 7  150 207 
 VIL  EZ EP   2   1251 43.03                              56   -0.56 5  152 137 
 VIL  EE ES   4   1252  3.74                              56    2.13 0  152 137 
 VIL  EZ  I       1252  7.82        13.7 0.56                           152 137 
 PTB  HZ EP   1   1251 44.58                              56    0.44 7  158   7 
 PTB  HN ES       1252  3.20                              56    0.61 9  158   7 
 PRA  HZ EP       1251 44.50                              56    0.31 9  158 190 
 PRA  HE ES   1   1252  2.64                              56   -0.04 7  158 190 
 PRA  HZ  I       1252  6.47         7.5 0.16                           158 190 
                                                                                
 2018  2 1 1302 40.9 L  11.190 -73.292 16.4  RSN  6 1.0 2.2LRSN                1
 GAP=160        2.30       7.6     4.9  8.7  0.5274E+00  0.2200E+01 -0.5332E+01E
 Epicentro: LA PAZ - CESAR                                                     3
 ACTION:SPL 18-03-20 21:18 OP:pat  STATUS:               ID:20180201130240 L   I
 2018-02-01-1258-00M.COL___463                                                 6
 STAT SP IPHASW D HRMM SECON CODA AMPLIT PERI AZIMU VELO AIN AR TRES W  DIS CAZ7
 CRJC HZ IP     C 13 2 49.81                             106    0.5910 48.6 113 
 CRJC HE ES       13 2 56.05                             106    0.3410 48.6 113 
 CRJC HZ  I       13 2 57.26       150.8 0.12                          48.6 113 
 VALLCHZ EP       13 2 53.26                             100    0.1210 75.5 177 
 VALLCHE ES       13 3  2.56                             100   -0.1210 75.5 177 
 SMAR HZ EP  2    13 2 57.23                              97    0.1710  102 268 
 SMAR HN ES       13 3  8.32                              97   -1.3410  102 268 
 URI  HN ES       13 3 21.66                              56   -0.65 9  153  68 
 DRL02HZ EP       13 3  5.37                              56    0.16 9  161 179 
 DRL02HE ES  2    13 3 22.55                              56   -1.62 9  161 179 
 SJC  HZ EP  2    13 3 17.87                              56    1.28 8  251 235 
 SJC  HN ES  2    13 3 46.40                              56    1.98 8  251 235 
                                                                                
 2018  2 1 1356 47.8 L   6.574 -73.607102.2  RSN  8 0.8 1.8LRSN                1
 GAP=117        1.30       5.4     5.8  9.5 -0.1874E+02  0.1645E+02 -0.1336E+02E
 Epicentro: EL CARMEN - SANTANDER                                              3
 ACTION:SPL 18-03-20 21:18 OP:pat  STATUS:               ID:20180201135647 L   I
 OLDACT:REG 18-02-01 20:22 OP:lv   STATUS:               ID:20180201134738     3
 2018-02-01-1348-00M.COL___469                                                 6
 STAT SP IPHASW D HRMM SECON CODA AMPLIT PERI AZIMU VELO AIN AR TRES W  DIS CAZ7
 BAR2 EZ EP       1357  2.69                             153   -0.5010 47.0  87 
 BAR2 EZ ES       1357 15.25                             153    0.0310 47.0  87 
 BAR2 EZ  I       1357 16.41        79.5 0.38                          47.0  87 
 PTB  HZ IP     C 1357  5.60                             133   -0.7210 94.0 268 
 PTB  HN ES       1357 20.58                             133   -0.2110 94.0 268 
 PTB  HZ  I       1357 22.01        12.5 0.18                          94.0 268 
 SPBC HZ EP       1357  7.71                             127   -0.5810  114 207 
 SPBC HN ES       1357 24.67                             127    0.3810  114 207 
 SPBC HZ  I       1357 30.87        14.6 0.18                           114 207 
 PAM  EZ EP       1357 10.40                             123   -0.1010  131  50 
 PAM  EN ES   2   1357 27.19                             123   -1.05 5  131  50 
 PAM  EZ  I       1357 31.11         6.1 0.26                           131  50 
 OCA  HZ EP       1357 16.86                             112    0.81 9  187  10 
 OCA  HN ES       1357 38.88                             112    0.76 9  187  10 
 GUY2CHZ EP       1357 23.87                             106    0.70 8  245 233 
 GUY2CHN ES       1357 51.48                             106    0.70 8  245 233 
 GUY2CHZ  I       1357 56.53         3.8 0.40                           245 233 
 PRA  HN ES   3   1358  9.76                              99   -1.51 2  347 204 
 SJC  HZ EP   3   1357 39.02                              95   -2.90 1  406 335 
 SJC  HN ES   3   1358 21.40                              95   -2.75 1  406 335 
                                                                                
 2018  2 1 1414 52.8 L   6.743 -74.107 65.4  RSN  5 0.5 1.5LRSN                1
 GAP=118        1.10       4.2     3.8  8.5 -0.1904E+01 -0.1816E+01 -0.5551E+01E
 Epicentro: PUERTO PARRA - SANTANDER                                           3
 ACTION:SPL 18-03-20 21:18 OP:pat  STATUS:               ID:20180201141452 L   I
 OLDACT:REG 18-02-01 20:23 OP:lv   STATUS:               ID:20180201140743     3
 2018-02-01-1408-00M.COL___466                                                 6
 STAT SP IPHASW D HRMM SECON CODA AMPLIT PERI AZIMU VELO AIN AR TRES W  DIS CAZ7
 PTB  HZ EP       1415  3.71                             142   -0.1710 44.7 240 
 PTB  HN ES       1415 12.59                             142    0.0610 44.7 240 
 PTB  HZ  I       1415 14.82         7.3 0.10                          44.7 240 
 BAR2 EZ IP     D 1415 10.46                             115    0.5110  104  99 
 BAR2 EZ ES       1415 23.49                             115    0.1510  104  99 
 BAR2 EZ  I       1415 24.98        14.1 0.78                           104  99 
 SPBC HZ EP       1415 11.27                             111   -0.4310  121 178 
 SPBC HN ES       1415 25.80                             111   -0.6410  121 178 
 SPBC HZ  I       1415 27.29        14.6 0.26                           121 178 
 GUY2CHZ EP       1415 23.65                             100   -0.14 8  218 220 
 GUY2CHN ES       1415 49.00                             100    1.02 8  218 220 
 GUY2CHZ  I       1415 52.90         2.4 0.28                           218 220 
 SJC  HZ EP       1415 41.76                              95    0.09 6  368 341 
 SJC  HN ES       1416 19.33                              95   -0.47 6  368 341 
                                                                                
