 2018  2 1 1500 30.3 L   4.374 -75.959151.5  RSN 25 0.8 2.4LRSN                1
 GAP= 57        1.65       3.6     4.5  6.4 -0.3707E+01  0.6947E+01 -0.1175E+01E
 Epicentro: SEVILLA - VALLE                                                    3
 ACTION:SPL 18-03-20 21:18 OP:pat  STATUS:               ID:20180201150030 L   I
 OLDACT:UP  18-02-02 20:23 OP:mg   STATUS:               ID:20180201150030 L   3
 OLDACT:UP  18-02-02 07:30 OP:dhb  STATUS:               ID:20180201150030 L   3
 OLDACT:UP  18-02-01 22:15 OP:lv   STATUS:               ID:20180201145738     3
 OLDACT:REG 18-02-01 20:25 OP:lv   STATUS:               ID:20180201145738     3
 2018-02-01-1458-00M.COL___475                                                 6
 STAT SP IPHASW D HRMM SECON CODA AMPLIT PERI AZIMU VELO AIN AR TRES W  DIS CAZ7
 CCALAHZ IP     C 15 0 50.42                             165   -0.5710 39.6  68 
 CCALAHN ES       15 1  5.88                             165   -1.2710 39.6  68 
 YOT  HZ IP     C 15 0 51.38                             157   -0.3010 60.9 225 
 YOT  HN ES       15 1  7.57                             157   -0.8210 60.9 225 
 YOT  HZ  I       15 1  9.09        42.9 0.22                          60.9 225 
 ANIL HZ EP       15 0 52.07                             156    0.0310 63.1  78 
 ANIL HN ES       15 1  8.85                             156   -0.1810 63.1  78 
 ANIL HZ  I       15 1 11.61       137.5 0.26                          63.1  78 
 PAL  HZ EP       15 0 52.27                             154    0.2610 68.9 329 
 PAL  HN ES       15 1  9.10                             154    0.1310 68.9 329 
 ELA  HZ EP       15 0 53.92                             150    0.5010 82.1  49 
 ELA  HN ES       15 1 12.52                             150    1.0310 82.1  49 
 ELA  HZ  I       15 1 15.16        42.0 0.32                          82.1  49 
 RECRCHZ EP       15 0 54.72                             147    0.5510 93.4  46 
 RECRCHN ES       15 1 14.63                             147    1.8110 93.4  46 
 ORTC HZ IP     D 15 0 53.44                             146   -0.0710 94.3 123 
 ORTC HN ES       15 1 10.94                             146   -0.7010 94.3 123 
 ORTC HZ  I       15 1 14.06        35.7 0.36                          94.3 123 
 GUY2CHZ IP     D 15 0 55.36                             141   -0.2410  115  35 
 GUY2CHN IS       15 1 15.48                             141    0.1110  115  35 
 GUY2CHZ  I       15 1 18.64        12.8 0.46                           115  35 
 PRA  HZ IP     D 15 0 57.09                             135    0.06 9  140 121 
 PRA  HN ES       15 1 17.97                             135    0.06 9  140 121 
 PRA  HZ  I       15 1 20.31        29.2 0.32                           140 121 
 JAMC HZ EP       15 0 58.13                             133   -0.12 9  151 212 
 JAMC HN ES       15 1 19.68                             133   -0.40 9  151 212 
 JAMC HZ  I       15 1 22.35        39.9 0.22                           151 212 
 MAL  EZ EP       15 1  0.20                             131    1.61 9  158 255 
 MAL  EN ES   2   15 1 20.40                             131   -0.28 5  158 255 
 MAL  EZ  I       15 1 30.89        23.2 0.48                           158 255 
 CBOC HZ IP     D 15 0 59.06                             130   -0.42 9  165 358 
 CBOC HN ES       15 1 21.35                             130   -0.91 9  165 358 
 CBOC HZ  I       15 1 25.09        16.0 0.22                           165 358 
 PIZC HZ IP     C 15 1  0.51                             129    0.94 9  169 293 
 MARO HZ  I       15 1 24.55        29.3 0.16                           169 180 
 PIZC HZ  I       15 1 26.85        36.7 0.24                           169 293 
 MARO HZ EP   2   15 1  1.18                             129    1.14 5  169 180 
 PIZC HN ES       15 1 23.28                             129    0.84 9  169 293 
 MARO HN ES   2   15 1 23.12                             129   -0.15 5  169 180 
 NOR  HZ EP       15 1  0.43                             127   -0.19 9  179  43 
 POP2 HZ EP       15 1  4.91                             122    0.11 8  218 201 
 POP2 HN ES       15 1 30.79                             122   -0.96 8  218 201 
 POP2 HZ  I       15 1 32.52        14.8 0.30                           218 201 
 CONO HZ EP   2   15 1  8.25                             120    1.59 4  231 192 
 CONO HN ES   4   15 1 38.03                             120    2.98 0  231 192 
 CONO HZ  I       15 1 41.56        14.0 0.57                           231 192 
 VIL  EN ES   2   15 1 39.32                             118    1.17 4  253  96 
 VIL  EZ  I       15 1 41.46        23.7 0.50                           253  96 
 PTB  HZ EP       15 1 11.57                             114   -0.91 7  292  35 
 PTB  HN ES   3   15 1 43.14                             114   -2.28 2  292  35 
 PTB  HZ  I       15 1 45.75         8.4 0.24                           292  35 
 DBB  EZ EP       15 1 12.42                             114   -0.37 7  294 355 
 DBB  HN ES       15 1 45.91                             114   -0.06 7  294 355 
 DBB  EZ  I       15 1 48.82         4.3 0.18                           294 355 
 BBAC HZ EP       15 1 13.83                             114    0.50 7  297 209 
 BBAC HN ES       15 1 46.94                             114    0.02 7  297 209 
 BBAC HZ  I       15 1 50.70        13.5 0.22                           297 209 
 URE  HZ EP       15 1 21.17                             108   -0.97 6  376   7 
 URE  HN ES       15 2  1.27                             108   -1.34 6  376   7 
 URE  HZ  I       15 2  3.40         6.5 0.30                           376   7 
 BAR2 EZ EP   9   15 1 20.45                             107   -3.95 0  393  51 
 BAR2 EZ ES       15 2  3.21                             107    0.54 6  393  51 
 BAR2 EZ  I       15 2  9.65        12.5 0.11                           393  51 
 SJC  HZ EP       15 1 50.22                             100   -0.46 3  617   8 
 SJC  HN ES   3   15 2 50.22                             100   -3.19 1  617   8 
 DRL03HZ EP       15 1 50.07                             100   -0.80 3  619  26 
 DRL03HN ES   3   15 2 50.74                             100   -3.00 1  619  26 
                                                                                
 2018  2 1 1533 12.8 L   6.810 -73.174136.0  RSN  4 0.4 1.6LRSN                1
 GAP=144        1.02      11.6     8.3  8.5 -0.7320E+02  0.2352E+02 -0.3464E+01E
 Epicentro: LOS SANTOS - SANTANDER                                             3
 ACTION:SPL 18-03-20 21:18 OP:pat  STATUS:               ID:20180201153312 L   I
 OLDACT:REG 18-02-01 20:28 OP:lv   STATUS:               ID:20180201152748     3
 2018-02-01-1528-00M.COL___475                                                 6
 STAT SP IPHASW D HRMM SECON CODA AMPLIT PERI AZIMU VELO AIN AR TRES W  DIS CAZ7
 BAR2 EZ IP     D 1533 31.03                             170   -0.2710 24.1 182 
 BAR2 EZ ES       1533 45.66                             170   -0.0510 24.1 182 
 BAR2 EZ  I       1533 47.63        10.7 0.18                          24.1 182 
 PAM  EZ EP       1533 34.04                             149   -0.0510 78.6  42 
 PAM  EN ES       1533 51.01                             149    0.3410 78.6  42 
 PAM  EZ  I       1533 53.48         6.7 0.62                          78.6  42 
 PTB  HZ EP       1533 37.93                             130   -0.81 9  145 258 
 PTB  HN ES       1533 59.18                             130    0.22 9  145 258 
 PTB  HZ  I       1534  2.43         5.0 0.20                           145 258 
 GUY2CHZ EP       1533 56.61                             111    0.83 7  299 234 
 GUY2CHN ES       1534 29.49                             111    0.21 7  299 234 
 GUY2CHZ  I       1534 36.26         2.4 0.30                           299 234 
                                                                                
