 2018  2 1 0326 33.1 L   3.493 -78.774 23.8  RSN 13 0.7 1.9LRSN                1
 GAP=275        0.91       4.2     6.1  4.3  0.1143E+01 -0.2903E+01 -0.5409E+01E
 Epicentro: O. PACIFICO SUR                                                    3
 ACTION:SPL 18-03-20 21:18 OP:pat  STATUS:               ID:20180201032633 L   I
 OLDACT:UP  18-02-01 16:48 OP:mg   STATUS:               ID:20180201031737     3
 OLDACT:UP  18-02-01 16:47 OP:mg   STATUS:               ID:20180201031737     3
 OLDACT:UP  18-02-01 16:47 OP:mg   STATUS:               ID:20180201031737     3
 OLDACT:REG 18-02-01 14:09 OP:leo  STATUS:               ID:20180201031737     3
 2018-02-01-0318-00M.COL___454                                                 6
 STAT SP IPHASW D HRMM SECON CODA AMPLIT PERI AZIMU VELO AIN AR TRES W  DIS CAZ7
 GR1C EZ EP        326 47.07                             104   -0.0510 86.5 129 
 GR1C EN ES        326 58.12                             104    0.0510 86.5 129 
 MAL  EZ IP     C  326 58.00                              56    0.15 9  170  70 
 MAL  EN ES   1    327 17.85                              56    0.67 7  170  70 
 MAL  EZ  I        327 19.79        26.3 0.42                           170  70 
 BBAC HZ EP        327  6.09                              56   -0.20 8  235 134 
 BBAC HE ES        327 31.94                              56   -0.25 8  235 134 
 BBAC HZ  I        327 37.01         5.2 0.35                           235 134 
 JAMC HZ EP        327  6.31                              56   -0.02 8  235  97 
 JAMC HN ES        327 31.56                              56   -0.71 8  235  97 
 JAMC HZ  I        327 33.79         6.6 0.10                           235  97 
 POP2 HZ EP        327  8.76                              56   -0.15 8  256 114 
 POP2 HZ  I        327 37.88         3.5 0.42                           256 114 
 YOT  HZ EP   1    327 10.86                              55   -0.31 6  275  79 
 YOT  HE ES   2    327 39.21                              55   -1.67 4  275  79 
 YOT  HZ  I        327 41.76         4.1 0.31                           275  79 
 SOTO HE EP   2    327 14.17                              55    1.48 4  284 122 
 SOTO HE ES   2    327 44.46                              55    0.87 4  284 122 
 CONO HZ EP   2    327 15.26                              55    1.23 4  294 116 
 CONO HN ES   1    327 46.79                              55    0.82 5  294 116 
 CONO HZ  I        327 58.21         6.7 0.37                           294 116 
 GCUF HZ EP        327 14.23                              55   -0.06 7  297 148 
 GCUF HE ES        327 46.49                              55    0.06 7  297 148 
 GCUF HZ  I        327 58.10         5.2 0.64                           297 148 
 BET  EZ EP   4    327 27.64                              55    3.29 0  383 103 
 GARC HZ EP   3    327 28.61                              55    2.83 1  392 112 
 ORTC HZ EP   3    327 28.27                              55    2.47 1  395  83 
 GUY2CHZ EP   1    327 29.55                              55   -0.43 4  424  63 
 PRA  HZ EP   9    327 33.02                              55    2.52 0  433  87 
 PRA  HE ES        328 18.42                              55    0.61 5  433  87 
 PRA  HZ  I        328 28.80         1.5 0.42                           433  87 
                                                                                
 2018  2 1 0413 46.8 L   3.891 -76.409111.8  RSN  4 0.3 1.2LRSN                1
 GAP=271        0.72       5.7     4.9  6.3  0.1612E+02 -0.8839E+01 -0.2939E+01E
 Epicentro: YOTOCO - VALLE                                                     3
 ACTION:SPL 18-03-20 21:18 OP:pat  STATUS:               ID:20180201041346 L   I
 OLDACT:REG 18-02-01 14:15 OP:leo  STATUS:               ID:20180201040745     3
 2018-02-01-0408-00M.COL___454                                                 6
 STAT SP IPHASW D HRMM SECON CODA AMPLIT PERI AZIMU VELO AIN AR TRES W  DIS CAZ7
 YOT  HZ EP        414  1.91                             173   -0.0610 12.5  35 
 YOT  HN ES        414 13.88                             173    0.0810 12.5  35 
 YOT  HZ  I        414 16.90         3.5 0.09                          12.5  35 
 PAL  HZ EP        414  7.61                             131   -0.3110  113   7 
 PAL  HN ES        414 24.63                             131    0.2310  113   7 
 PAL  HZ  I        414 26.46         6.5 0.17                           113   7 
 ORTC HN ES        414 26.60                             127   -0.4510  129  89 
 ORTC HZ  I        414 29.01         2.3 0.15                           129  89 
 PRA  HZ EP        414 13.94                             119    0.31 9  170  97 
 PRA  HN ES        414 34.85                             119    0.28 9  170  97 
 PRA  HZ  I        414 35.93         2.1 0.26                           170  97 
                                                                                
 2018  2 1 0436  6.9 L   4.879 -75.333  2.0  RSN  7 0.7 0.9LRSN                1
 GAP=224        1.48       4.1     7.5  3.3 -0.1598E+02 -0.6545E+01 -0.2305E+01E
 Epicentro: MURILLO - TOLIMA                                                   3
 ACTION:SPL 18-03-20 21:18 OP:pat  STATUS:               ID:20180201043606 L   I
 OLDACT:UP  18-02-01 17:35 OP:mg   STATUS:               ID:20180201042740     3
 OLDACT:REG 18-02-01 14:17 OP:leo  STATUS:               ID:20180201042740     3
 2018-02-01-0428-00M.COL___454                                                 6
 STAT SP IPHASW D HRMM SECON CODA AMPLIT PERI AZIMU VELO AIN AR TRES W  DIS CAZ7
 ELA  HZ IP     C  436  8.79                             129   -0.1110 7.73 255 
 ELA  HN ES        436 10.11                             129   -0.3910 7.73 255 
 NIZA HZ EP        436 12.46                              47    0.6410 24.9 322 
 NIZA HN ES        436 15.14                              47   -0.5410 24.9 322 
 GUY2CHZ EP     C  436 14.25                              47    0.2110 38.3 355 
 GUY2CHE ES        436 18.69                              47   -0.9410 38.3 355 
 GUY2CHZ  I        436 19.62        15.4 0.19                          38.3 355 
 CCALAHZ EP   1    436 15.85                              47   -0.06 7 52.4 219 
 CCALAHN ES   1    436 22.14                              47   -0.83 7 52.4 219 
 PAL  HZ EP   2    436 24.81                              47    1.03 5  105 272 
 PAL  HN ES   1    436 37.98                              47    1.01 7  105 272 
 PAL  HZ  I        436 39.09         5.0 0.17                           105 272 
 CBOC HZ EP        436 28.85                              47    0.8710  132 325 
 YOT  HZ EP   2    436 31.52                              47    0.96 5  150 229 
 YOT  HN ES   1    436 48.64                              47   -0.39 7  150 229 
 YOT  HZ  I        436 51.16         0.7 0.12                           150 229 
                                                                                
 2018  2 1 0507 24.4 L   7.151 -79.621  4.0  RSN 10 0.6 2.7LRSN                1
 GAP=169        1.04       5.5     2.5  6.4 -0.2009E+01  0.2819E+01 -0.2089E+02E
 Epicentro: O. PACIFICO NORTE                                                  3
 ACTION:SPL 18-03-20 21:18 OP:pat  STATUS:               ID:20180201050724 L   I
 2018-02-01-0457-00M.COL___448                                                 6
 STAT SP IPHASW D HRMM SECON CODA AMPLIT PERI AZIMU VELO AIN AR TRES W  DIS CAZ7
 AZU  HZ EP        5 7 40.30                              47    0.0210  101 315 
 AZU  HN ES        5 7 52.71                              47    0.0410  101 315 
 AZU  HZ  I        5 7 58.42       528.9 0.48                           101 315 
 CACAOHZ EP        5 7 45.67                              47   -0.08 9  137 278 
 CACAOHN ES        5 8  2.35                              47   -0.05 9  137 278 
 CACAOHZ  I        5 8 11.39        77.5 0.48                           137 278 
 PNME HN ES   3    5 8  9.91                              47   -0.53 2  167 332 
 GMAL HZ EP        5 7 53.76                              37   -0.06 9  194 292 
 GMAL HN ES        5 8 17.03                              37    0.26 9  194 292 
 GMAL HZ  I        5 8 22.42        84.1 0.82                           194 292 
 UPA  HZ EP        5 7 54.65                              37   -0.31 9  203   3 
 UPA  HN ES        5 8 17.92                              37   -0.88 9  203   3 
 BCIP BZ EP        5 7 58.21                              37    0.51 8  225 354 
 BCIP B1 ES        5 8 23.99                              37    0.31 8  225 354 
 BCIP BZ  I        5 8 26.82        43.5 0.30                           225 354 
 UPD2 HZ EP        5 7 59.13                              37    0.11 8  235  49 
 UPD2 HN ES        5 8 26.25                              37    0.22 8  235  49 
 UPD2 HZ  I        5 8 37.95        27.3 0.50                           235  49 
 APAC HZ EP   3    5 8 13.95                              36    1.18 7  346  76 
 APAC HN ES   3    5 8 50.64                              36    0.13 2  346  76 
 DBB  EZ EP        5 8 16.90                              36    0.13 6  377  92 
 CBOC HZ EP        5 8 20.77                              36   -1.86 5  424 109 
                                                                                
 2018  2 1 0517 31.2 L   6.805 -73.197140.0  RSN  6 0.5 1.7LRSN                1
 GAP=133        0.90       7.2     6.5  7.6 -0.3254E+02  0.1303E+02 -0.1941E+01E
 Epicentro: ZAPATOCA - SANTANDER                                               3
 ACTION:SPL 18-03-20 21:18 OP:pat  STATUS:               ID:20180201051731 L   I
 2018-02-01-0508-00M.COL___445                                                 6
 STAT SP IPHASW D HRMM SECON CODA AMPLIT PERI AZIMU VELO AIN AR TRES W  DIS CAZ7
 BAR2 EZ EP        517 50.06                             170   -0.0810 23.5 176 
 BAR2 EZ ES        518  5.12                             170    0.2110 23.5 176 
 BAR2 EZ  I        518  5.99        22.3 0.28                          23.5 176 
 PAM  EZ EP        517 52.97                             149   -0.0410 80.8  43 
 PAM  EN ES        518 10.04                             149    0.0110 80.8  43 
 PAM  EZ  I        518 12.01        10.0 0.50                          80.8  43 
 PTB  HZ EP        517 56.42                             132   -0.78 9  142 258 
 PTB  HN ES        518 17.84                             132    0.36 9  142 258 
 PTB  HZ  I        518 23.30         3.9 0.18                           142 258 
 OCA  HN ES   3    518 21.73                             129    1.11 2  159 355 
 SPBC HZ EP        517 59.29                             129    0.33 9  160 217 
 SPBC HZ ES        518 20.43                             129   -0.18 9  160 217 
 SPBC HZ  I        518 25.65         6.1 0.42                           160 217 
 GUY2CHZ EP   3    518 16.69                             112    2.64 2  297 234 
 GUY2CHE ES   4    518 49.32                             112    1.84 0  297 234 
 GUY2CHZ  I        518 58.44         1.5 0.54                           297 234 
                                                                                
 2018  2 1 0524  1.3 L   7.120 -79.610  4.4  RSN  7 0.3 2.4LRSN                1
 GAP=171        0.73       5.3     2.9  5.6  0.2056E+01  0.3720E+00 -0.2167E+02E
 Epicentro: O. PACIFICO NORTE                                                  3
 ACTION:SPL 18-03-20 21:18 OP:pat  STATUS:               ID:20180201052401 L   I
 OLDACT:UP  18-02-09 08:30 OP:migu STATUS:               ID:20180201052401 L   3
 OLDACT:UP  18-02-07 07:50 OP:migu STATUS:               ID:20180201052401 L   3
 2018-02-01-0518-00M.COL___445                                                 6
 STAT SP IPHASW D HRMM SECON CODA AMPLIT PERI AZIMU VELO AIN AR TRES W  DIS CAZ7
 AZU  HZ EP        524 17.76                              47    0.0610  104 315 
 AZU  HN ES        524 30.28                              47   -0.2110  104 315 
 AZU  HZ  I        524 35.89       212.9 0.40                           104 315 
 CACAOHZ EP        524 22.98                              47    0.0410  139 280 
 CACAOHN ES   3    524 39.03                              47   -0.77 2  139 280 
 CACAOHZ  I        524 48.83        33.2 0.48                           139 280 
 GMAL HZ EP   9    524 32.95                              37    1.94 0  196 293 
 GMAL HN ES        524 56.55                              37    0.43 9  196 293 
 GMAL HZ  I        524 59.65        21.6 0.38                           196 293 
 UPA  HZ EP        524 32.32                              37    0.05 9  206   2 
 UPA  HN ES        524 55.79                              37   -0.63 9  206   2 
 BCIP B2 EP        524 35.34                              37    0.31 8  228 354 
 BCIP BZ ES        525  1.82                              37    0.48 8  228 354 
 DBB  EZ EP        524 53.76                              36    0.27 6  376  92 
 CBOC HZ EP        524 59.04                              36   -0.19 5  421 109 
 CBOC HE ES   4    525 41.03                              36   -3.38 0  421 109 
                                                                                
 2018  2 1 0551 39.2 L   6.845 -73.088145.7  RSN  7 0.6 1.7LRSN                1
 GAP=162        0.89       4.0     5.9  6.3 -0.1328E+02  0.7509E+01  0.1734E+01E
 Epicentro: LOS SANTOS - SANTANDER                                             3
 ACTION:SPL 18-03-20 21:18 OP:pat  STATUS:               ID:20180201055139 L   I
 OLDACT:UP  18-02-07 07:50 OP:migu STATUS:               ID:20180201055139 L   3
 2018-02-01-0548-00M.COL___397                                                 6
 STAT SP IPHASW D HRMM SECON CODA AMPLIT PERI AZIMU VELO AIN AR TRES W  DIS CAZ7
 BAR2 EZ EP        551 58.89                             168   -0.0410 29.8 200 
 BAR2 EZ ES        552 14.48                             168    0.1310 29.8 200 
 BAR2 EZ  I        552 15.52         9.7 0.18                          29.8 200 
 PAM  EZ EP        552  1.39                             153    0.4710 69.5  38 
 PAM  EN ES        552 17.85                             153   -0.0410 69.5  38 
 PAM  EZ  I        552 21.29         3.1 0.16                          69.5  38 
 PTB  HZ EP   3    552  5.56                             131   -1.23 2  155 258 
 PTB  HN ES        552 28.62                             131    0.28 9  155 258 
 PTB  HZ  I        552 28.74         5.6 0.12                           155 258 
 OCA  HZ EP        552  7.45                             130    0.35 9  156 351 
 OCA  HN ES        552 28.29                             130   -0.59 9  156 351 
 OCA  HZ  I        552 35.29        14.3 0.32                           156 351 
 SPBC HZ EP        552  7.95                             128   -0.46 9  171 220 
 SPBC HN ES        552 31.00                             128   -0.22 9  171 220 
 SPBC HZ  I        552 37.02         7.0 0.20                           171 220 
 GUY2CHZ EP   2    552 24.98                             112    1.30 4  309 235 
 GUY2CHE ES   3    553  1.04                             112    2.64 2  309 235 
 GUY2CHZ  I        553  4.15         2.0 0.60                           309 235 
 PRA  HZ EP        552 33.22                             106   -0.34 6  399 210 
 PRA  HN ES        553 15.78                             106   -0.20 6  399 210 
 PRA  HZ  I        553 18.83         2.4 0.70                           399 210 
                                                                                
 2018  2 1 0602 56.0 L   2.481 -75.487  2.0  RSN 12 0.4 2.1LRSN                1
 GAP= 80        1.17       2.1     2.4  4.5 -0.1821E+01  0.1968E+01 -0.1859E+01E
 Epicentro: HOBO - HUILA                                                       3
 ACTION:SPL 18-03-20 21:18 OP:pat  STATUS:               ID:20180201060256 L   I
 OLDACT:UP  18-02-01 17:27 OP:leo  STATUS:               ID:20180201055751d    3
 OLDACT:UP  18-02-01 17:26 OP:leo  STATUS:               ID:20180201055751d    3
 2018-02-01-0558-00M.COL___445                                                 6
 STAT SP IPHASW D HRMM SECON CODA AMPLIT PERI AZIMU VELO AIN AR TRES W  DIS CAZ7
 BET  EZ EP        6 3  1.83                              47    0.6710 27.7  16 
 BET  EN ES        6 3  5.36                              47    0.1910 27.7  16 
 BET  EZ  I        6 3  7.75       102.5 0.16                          27.7  16 
 GARC HZ IP     C  6 3  1.96                              47   -0.1410 32.6 181 
 GARC HN ES        6 3  7.22                              47    0.3710 32.6 181 
 MARO HZ EP        6 3  6.74                              47   -0.3910 65.6 308 
 MARO HN ES        6 3 15.45                              47   -0.3510 65.6 308 
 MARO HZ  I        6 3 16.14       191.2 0.12                          65.6 308 
 CONO HZ EP        6 3 12.85                              47   -0.2010  103 260 
 CONO HN ES        6 3 25.96                              47   -0.3710  103 260 
 CONO HZ  I        6 3 27.35        46.0 0.32                           103 260 
 SOTO HE EP        6 3 17.21                              47    0.0310  130 253 
 SOTO HE ES        6 3 33.53                              47   -0.1610  130 253 
 POP2 HZ EP        6 3 17.34                              47    0.1310  132 273 
 POP2 HN ES        6 3 34.37                              47    0.6310  132 273 
 PRA  HZ EP        6 3 19.63                              47   -0.31 9  152  26 
 PRA  HN ES        6 3 38.48                              47   -0.11 9  152  26 
 PRA  HZ  I        6 3 38.91        33.3 0.32                           152  26 
 JAMC HE ES        6 3 40.18                              47    0.41 9  155 302 
 ORTC HZ EP        6 3 21.00                              47   -0.20 9  160  10 
 ORTC HN ES        6 3 41.14                              47    0.29 9  160  10 
 ORTC HZ  I        6 3 45.75        22.4 0.14                           160  10 
 MACC HZ EP   9    6 4  0.90                              37   36.01 0  186 101 
 MACC HN ES        6 4 21.96                              37   -1.46 9  186 101 
 YOT  HZ EP        6 3 25.43                              37   -0.27 9  192 330 
 YOT  HN ES        6 3 48.46                              37   -0.39 9  192 330 
 VIL  EN ES   3    6 4  8.16                              37    2.11 2  269  48 
                                                                                
